[
  {
    "vendorname": "4 Points Liquor",
    "address": "5510 Pearblossom Hwy",
    "city": "Palmdale",
    "zip": "93552",
    "phone": "661-533-1366",
    "products": "Annual, Daily, Secondary"
  },
  {
    "vendorname": "5 Points Shell",
    "address": "26745 Hwy 189",
    "city": "Twin Peaks",
    "zip": "92391",
    "phone": "909-337-4400",
    "products": "Annual, Daily, Secondary"
  },
  {
    "vendorname": "7 - Eleven #13847",
    "address": "11348 Sunburst St",
    "city": "Lakeview Terrace",
    "zip": "91342",
    "phone": "818-896-6315",
    "products": "Annual, Daily"
  },
  {
    "vendorname": "7 - Eleven #13896",
    "address": "27761 Bouquet Canyon Rd.",
    "city": "Saugus",
    "zip": "91350",
    "phone": "661-296-1329",
    "products": "Annual, Daily, Secondary"
  },
  {
    "vendorname": "7 - Eleven #13995",
    "address": "861 W Route 66",
    "city": "Glendora",
    "zip": "91702",
    "phone": "626-335-9514",
    "products": "Annual, Daily, Secondary"
  },
  {
    "vendorname": "7 - Eleven #17448",
    "address": "455 E Foothill Blvd",
    "city": "Azusa",
    "zip": "91702",
    "phone": "626-334-9729",
    "products": "Annual, Daily, Secondary"
  },
  {
    "vendorname": "7 - Eleven #20295",
    "address": "400 W Foothill Blvd",
    "city": "Monrovia",
    "zip": "91016",
    "phone": "626-358-5112",
    "products": "Annual, Daily, Secondary"
  },
  {
    "vendorname": "7 - Eleven #20814",
    "address": "8363 Foothill Blvd",
    "city": "Sunland",
    "zip": "91040",
    "phone": "818-353-0321",
    "products": "Annual, Daily, Secondary"
  },
  {
    "vendorname": "7 - Eleven #22809",
    "address": "41440-A Big Bear Blvd",
    "city": "Big Bear Lake",
    "zip": "92315",
    "phone": "909-866-7711",
    "products": "Annual, Daily"
  },
  {
    "vendorname": "7 - Eleven #23818",
    "address": "24156 Lake Dr",
    "city": "Crestline",
    "zip": "92325",
    "phone": "909-338-5224",
    "products": "Annual, Daily, Secondary"
  },
  {
    "vendorname": "7 - Eleven #25484",
    "address": "8724 Foothill Blvd",
    "city": "Sunland",
    "zip": "91040",
    "phone": "818-352-8548",
    "products": "Annual, Daily, Secondary"
  },
  {
    "vendorname": "7 - Eleven #26279",
    "address": "298 Holiday Rd",
    "city": "Lake Arrowhead",
    "zip": "92352",
    "phone": "909-336-1697",
    "products": "Annual, Daily, Secondary"
  },
  {
    "vendorname": "7 - Eleven #26945",
    "address": "27680 Lake Hughes Rd",
    "city": "Castaic",
    "zip": "91384",
    "phone": "661-257-0831",
    "products": "Annual, Daily, Secondary"
  },
  {
    "vendorname": "7 - Eleven #27226",
    "address": "27588 N. Sierra Hwy",
    "city": "Canyon Country",
    "zip": "91351",
    "phone": "661-298-1510",
    "products": "Annual, Daily, Secondary"
  },
  {
    "vendorname": "7 - Eleven #32151",
    "address": "41901 Big Bear Blvd",
    "city": "Big Bear Lake",
    "zip": "92315",
    "phone": "909-878-9166",
    "products": "Daily"
  },
  {
    "vendorname": "7 - Eleven #34055",
    "address": "28088 Bouquet Canyon",
    "city": "Santa Clarita",
    "zip": "91350",
    "phone": "661-296-7775",
    "products": "Annual, Daily, Secondary"
  },
  {
    "vendorname": "7 - Eleven #34765",
    "address": "1535 Foothill Blvd",
    "city": "La Caada",
    "zip": "91101",
    "phone": "818-952-5578",
    "products": "Annual, Daily, Secondary"
  },
  {
    "vendorname": "7 - Eleven #35684",
    "address": "1001 Foothill Blvd",
    "city": "La Caada",
    "zip": "91011",
    "phone": "818-982-5369",
    "products": "Annual, Daily, Secondary"
  },
  {
    "vendorname": "7 - Eleven #39233",
    "address": "2 E Duarte Rd",
    "city": "Arcadia",
    "zip": "91006",
    "phone": "626-462-9992",
    "products": "Annual, Daily, Secondary"
  },
  {
    "vendorname": "7 Stars Food Store",
    "address": "390 South San Gorgonio",
    "city": "Banning",
    "zip": "92220",
    "phone": "951-849-1967",
    "products": "Annual, Daily, Secondary"
  },
  {
    "vendorname": "76 # 1525 - Covington",
    "address": "17624 SE 272nd St",
    "city": "Covington",
    "zip": "98042",
    "phone": "253-631-0330",
    "products": "Interagency Annual"
  },
  {
    "vendorname": "76 # 158 - La Palma",
    "address": "5502 Orangethorpe Ave",
    "city": "La Palma",
    "zip": "90623",
    "phone": "714-522-8669",
    "products": "Annual, Daily, Secondary"
  },
  {
    "vendorname": "76 # 16 - Sun City",
    "address": "1500 Patricia Lane",
    "city": "Sun City",
    "zip": "92570",
    "phone": "951-943-7220",
    "products": "Daily"
  },
  {
    "vendorname": "76 # 1971 - Mentone",
    "address": "1702 Mentone Blvd",
    "city": "Mentone",
    "zip": "92359",
    "phone": "909-794-7744",
    "products": "Annual, Daily, Secondary"
  },
  {
    "vendorname": "76 # 1991 - Burien",
    "address": "17700 Ambaum Blvd S",
    "city": "Burien",
    "zip": "98148",
    "phone": "206-244-4586",
    "products": "Interagency Annual"
  },
  {
    "vendorname": "76 # 21 - Fallbrook",
    "address": "1202 S Main St",
    "city": "Fallbrook",
    "zip": "92028",
    "phone": "760-723-1453",
    "products": "Annual, Daily, Secondary"
  },
  {
    "vendorname": "76 # 28 - Long Beach",
    "address": "3565 Los Coyotes Diagonal",
    "city": "Long Beach",
    "zip": "90808",
    "phone": "562-421-1928",
    "products": "Annual, Daily, Secondary, Interagency Annual"
  },
  {
    "vendorname": "76 # 30 - Vista",
    "address": "485 N Melrose Dr",
    "city": "Vista",
    "zip": "92083",
    "phone": "760-630-7282",
    "products": "Daily"
  },
  {
    "vendorname": "76 # 355 - Joshua Tree",
    "address": "61920 Twentynine Palms Hwy",
    "city": "Joshua Tree",
    "zip": "92252",
    "phone": "760-366-8513",
    "products": "Interagency Annual"
  },
  {
    "vendorname": "76 # 37 - Vista",
    "address": "535 N Santa Fe Ave",
    "city": "Vista",
    "zip": "92083",
    "phone": "760-414-1649",
    "products": "Daily"
  },
  {
    "vendorname": "76 # 44 - Oceanside",
    "address": "3401 College Blvd",
    "city": "Oceanside",
    "zip": "92056",
    "phone": "760-434-8004",
    "products": "Annual, Daily, Secondary"
  },
  {
    "vendorname": "76 # 47 - Vista",
    "address": "911 E Vista Way",
    "city": "Vista",
    "zip": "92084",
    "phone": "760-643-1896",
    "products": "Daily"
  },
  {
    "vendorname": "76 # 5091 - Lynnwood",
    "address": "202 164 St SW",
    "city": "Lynnwood",
    "zip": "98037",
    "phone": "253-545-1318",
    "products": "Interagency Annual"
  },
  {
    "vendorname": "76 # 5093 - Wildomar",
    "address": "33982 Mission Tr",
    "city": "Wildomar",
    "zip": "92595",
    "phone": "951-245-4210",
    "products": "Annual, Daily, Secondary, Interagency Annual"
  },
  {
    "vendorname": "76 # 5240 - San Bernardino",
    "address": "3008 N E St",
    "city": "San Bernardino",
    "zip": "92405",
    "phone": "909-883-0937",
    "products": "Annual, Daily, Secondary, Interagency Annual"
  },
  {
    "vendorname": "76 # 5246 - Oceanside",
    "address": "3350 College Blvd",
    "city": "Oceanside",
    "zip": "92056",
    "phone": "760-724-9740",
    "products": "Annual, Daily, Secondary, Interagency Annual"
  },
  {
    "vendorname": "76 # 5249 - Rialto",
    "address": "105 S Pepper Ave",
    "city": "Rialto",
    "zip": "92376",
    "phone": "909-820-4735",
    "products": "Annual, Daily, Secondary, Interagency Annual"
  },
  {
    "vendorname": "76 # 5250 - San Marcos",
    "address": "190 W San Marcos Blvd",
    "city": "San Marcos",
    "zip": "92069",
    "phone": "760-591-7688",
    "products": "Annual, Daily, Secondary, Interagency Annual"
  },
  {
    "vendorname": "76 # 5402 - Port Orchard",
    "address": "1350 Bay St",
    "city": "Port Orchard",
    "zip": "98366",
    "phone": "360-876-1355",
    "products": "Interagency Annual"
  },
  {
    "vendorname": "76 # 5456 - Portland",
    "address": "2281 NE 181St Ave",
    "city": "Portland",
    "zip": "97230",
    "phone": "503-492-8667",
    "products": "Interagency Annual"
  },
  {
    "vendorname": "76 # 5468 - Springfield",
    "address": "5720 E Main St",
    "city": "Springfield",
    "zip": "97478",
    "phone": "458-206-6080",
    "products": "Interagency Annual"
  },
  {
    "vendorname": "76 # 5470 - Arlington",
    "address": "2313 SR 530",
    "city": "Arlington",
    "zip": "98223",
    "phone": "360-652-8700",
    "products": "Interagency Annual"
  },
  {
    "vendorname": "76 # 5477 - Bellvue",
    "address": "15615 NE 8th St",
    "city": "Bellevue",
    "zip": "98008",
    "phone": "425-957-0306",
    "products": "Interagency Annual"
  },
  {
    "vendorname": "76 # 5478 - Bellvue",
    "address": "2724 84th Ave NE",
    "city": "Bellevue",
    "zip": "98004",
    "phone": "425-454-3749",
    "products": "Interagency Annual"
  },
  {
    "vendorname": "76 # 5480 - Burien",
    "address": "15846 1st Ave South",
    "city": "Burien",
    "zip": "98148",
    "phone": "206-242-4344",
    "products": "Interagency Annual"
  },
  {
    "vendorname": "76 # 5483 - Federal Way",
    "address": "2535 S 320th St",
    "city": "Federal Way",
    "zip": "98003",
    "phone": "253-941-5999",
    "products": "Interagency Annual"
  },
  {
    "vendorname": "76 # 5485 - Federal Way",
    "address": "33800 1st Ave S",
    "city": "Federal Way",
    "zip": "98003",
    "phone": "253-927-8003",
    "products": "Interagency Annual"
  },
  {
    "vendorname": "76 # 5486 - Fife",
    "address": "5405 Pacific Hwy E",
    "city": "Fife",
    "zip": "98424",
    "phone": "253-922-9017",
    "products": "Interagency Annual"
  },
  {
    "vendorname": "76 # 5490 - Kent",
    "address": "13122 SE 240th St",
    "city": "Kent",
    "zip": "98031",
    "phone": "253-631-8512",
    "products": "Interagency Annual"
  },
  {
    "vendorname": "76 # 5491 - Covington",
    "address": "16405 SE 272nd St",
    "city": "Covington",
    "zip": "98042",
    "phone": "253-631-1885",
    "products": "Interagency Annual"
  },
  {
    "vendorname": "76 # 5492 - Kent",
    "address": "21208 68th Ave S",
    "city": "Kent",
    "zip": "98032",
    "phone": "253-872-0193",
    "products": "Interagency Annual"
  },
  {
    "vendorname": "76 # 5494 - Kirkland",
    "address": "11848 NE 85th St",
    "city": "Kirkland",
    "zip": "98033",
    "phone": "425-827-3348",
    "products": "Interagency Annual"
  },
  {
    "vendorname": "76 # 5500 - Mill Creek",
    "address": "16320 Mill Creek Blvd",
    "city": "Mill Creek",
    "zip": "98012",
    "phone": "425-745-2510",
    "products": "Interagency Annual"
  },
  {
    "vendorname": "76 # 5502 - Monroe",
    "address": "14980 N Kelsey St",
    "city": "Monroe",
    "zip": "98272",
    "phone": "360-805-0887",
    "products": "Interagency Annual"
  },
  {
    "vendorname": "76 # 5508 - Renton",
    "address": "2022 S Puget Dr",
    "city": "Renton",
    "zip": "98055",
    "phone": "425-271-4376",
    "products": "Interagency Annual"
  },
  {
    "vendorname": "76 # 5522 - Silverdale",
    "address": "10023 Old Frontier Rd NW",
    "city": "Silverdale",
    "zip": "98383",
    "phone": "360-692-9216",
    "products": "Interagency Annual"
  },
  {
    "vendorname": "76 # 5523 - Silverdale",
    "address": "10744 Silverdale Way",
    "city": "Silverdale",
    "zip": "98383",
    "phone": "360-698-0497",
    "products": "Interagency Annual"
  },
  {
    "vendorname": "76 # 5528 - Tacoma",
    "address": "15119 Pacific Ave",
    "city": "Tacoma",
    "zip": "98444",
    "phone": "253-536-7601",
    "products": "Interagency Annual"
  },
  {
    "vendorname": "76 # 5529 - Tacoma",
    "address": "2602 N Pearl St",
    "city": "Tacoma",
    "zip": "98407",
    "phone": "253-759-8684",
    "products": "Interagency Annual"
  },
  {
    "vendorname": "76 # 5531 - Tacoma",
    "address": "4813 Bridgeport Way W",
    "city": "Tacoma",
    "zip": "98467",
    "phone": "253-564-6418",
    "products": "Interagency Annual"
  },
  {
    "vendorname": "76 # 5535 - Woodinville",
    "address": "14002 NE 175th St",
    "city": "Woodinville",
    "zip": "98072",
    "phone": "425-481-0734",
    "products": "Interagency Annual"
  },
  {
    "vendorname": "76 # 5536 - Silverdale",
    "address": "9215 Silverdale Way NW",
    "city": "Silverdale",
    "zip": "98383",
    "phone": "360-692-1214",
    "products": "Interagency Annual"
  },
  {
    "vendorname": "76 # 5574 - Puyallup",
    "address": "17506 Meridian E",
    "city": "Puyallup",
    "zip": "98375",
    "phone": "253-445-0697",
    "products": "Interagency Annual"
  },
  {
    "vendorname": "76 # 5793 - Murrietta",
    "address": "41010 California Oaks Rd.",
    "city": "Murrieta",
    "zip": "92562",
    "phone": "951-461-0217",
    "products": "Annual, Daily, Secondary, Interagency Annual"
  },
  {
    "vendorname": "76 # 5927 - Edmunds",
    "address": "22625 Hwy 99",
    "city": "Edmonds",
    "zip": "98026",
    "phone": "425-775-3714",
    "products": "Interagency Annual"
  },
  {
    "vendorname": "76 # 5928 - Auburn",
    "address": "601 Auburn Way S",
    "city": "Auburn",
    "zip": "98002",
    "phone": "253-833-5881",
    "products": "Interagency Annual"
  },
  {
    "vendorname": "76 # 5929 - Bothell",
    "address": "20717 Bothell Everett Hwy Sr 527",
    "city": "Bothell",
    "zip": "98012",
    "phone": "425-481-7600",
    "products": "Interagency Annual"
  },
  {
    "vendorname": "76 # 619 - Inglewood",
    "address": "8600 Aviation Blvd",
    "city": "Inglewood",
    "zip": "90301",
    "phone": "310-439-5648",
    "products": "Daily"
  },
  {
    "vendorname": "76 # 665 - Fontana",
    "address": "16081 Valley Blvd",
    "city": "Fontana",
    "zip": "92335",
    "phone": "909-361-4630",
    "products": "Daily"
  },
  {
    "vendorname": "76 # 667 - Cajon Pass",
    "address": "8324 Highway 138",
    "city": "Phelan",
    "zip": "92371",
    "phone": "760-237-8957",
    "products": "Annual, Daily, Secondary"
  },
  {
    "vendorname": "76 # 686 - Ventura",
    "address": "774 N Ventura Ave",
    "city": "Ventura",
    "zip": "93001",
    "phone": "805-222-4575",
    "products": "Annual, Daily, Secondary"
  },
  {
    "vendorname": "76 # 688 - Camarillo",
    "address": "100 S Las Posas Road",
    "city": "Camarillo",
    "zip": "93010",
    "phone": "805-263-4940",
    "products": "Annual, Interagency Annual"
  },
  {
    "vendorname": "76 # 7960 - Auburn",
    "address": "5011 S 288th St",
    "city": "Auburn",
    "zip": "98001",
    "phone": "253-941-8166",
    "products": "Interagency Annual"
  },
  {
    "vendorname": "76 # 7964 - Phelan",
    "address": "4125 Phelan Rd",
    "city": "Phelan",
    "zip": "92371",
    "phone": "760-868-5315",
    "products": "Annual, Daily, Secondary"
  },
  {
    "vendorname": "Abbey Rose",
    "address": "40284 Big Bear Blvd",
    "city": "Big Bear Lake",
    "zip": "92315",
    "phone": "909-878-2239",
    "products": "Daily"
  },
  {
    "vendorname": "Above & Beyond Sports",
    "address": "32877 Hilltop Blvd",
    "city": "Arrowbear Lake",
    "zip": "92382",
    "phone": "909-867-5517",
    "products": "Daily"
  },
  {
    "vendorname": "Acton Ace Hardware, Inc.",
    "address": "31814 Crown Valley Rd",
    "city": "Acton",
    "zip": "93510",
    "phone": "661-269-4223",
    "products": "Annual, Daily, Secondary"
  },
  {
    "vendorname": "Adams Pack Station",
    "address": "80 W Sierra Madre Blvd #34",
    "city": "Sierra Madre",
    "zip": "91025",
    "phone": "626-447-7356",
    "products": "Annual, Daily, Secondary"
  },
  {
    "vendorname": "Alpine Liquor",
    "address": "41532 Big Bear Blvd",
    "city": "Big Bear Lake",
    "zip": "92315",
    "phone": "909-866-2824",
    "products": "Annual, Daily, Secondary"
  },
  {
    "vendorname": "Alpine Ranger Station",
    "address": "3348 Alpine Blvd",
    "city": "Alpine",
    "zip": "91901",
    "phone": "619-445-6235",
    "products": "Annual, Daily, Secondary, Interagency Annual, Senior, Access"
  },
  {
    "vendorname": "Alpine Ride Shop",
    "address": "2218 Alpine Blvd",
    "city": "Alpine",
    "zip": "91901",
    "phone": "619-722-7133",
    "products": "Annual, Daily, Secondary"
  },
  {
    "vendorname": "Altadena Chevron",
    "address": "907 E Altadena Dr",
    "city": "Altadena",
    "zip": "91001",
    "phone": "626-797-9221",
    "products": "Annual, Daily, Secondary"
  },
  {
    "vendorname": "Angeles National Forest\n            San Gabriel Mountains National Monument",
    "address": "701 N. Santa Anita Ave",
    "city": "Arcadia",
    "zip": "91006",
    "phone": "626-574-1613",
    "products": "Annual, Daily, Secondary, Interagency Annual, Senior, Access"
  },
  {
    "vendorname": "Angeles Volunteer Association",
    "address": "110 N Wabash Ave",
    "city": "Glendora",
    "zip": "91741",
    "phone": "626-335-4669",
    "products": "Annual, Daily, Secondary"
  },
  {
    "vendorname": "Anza Electric Cooperative",
    "address": "58470 Hwy 371",
    "city": "Anza",
    "zip": "92539",
    "phone": "951-763-4333",
    "products": "Annual, Daily, Secondary"
  },
  {
    "vendorname": "Arco AM & PM - Arcadia",
    "address": "5 West Foothill Blvd",
    "city": "Arcadia",
    "zip": "91006-2339",
    "phone": "626-355-2749",
    "products": "Annual, Daily, Secondary"
  },
  {
    "vendorname": "Arco AM & PM - Azusa",
    "address": "295 S Azusa Ave",
    "city": "Azusa",
    "zip": "91702",
    "phone": "626-334-5634",
    "products": "Annual, Daily, Secondary"
  },
  {
    "vendorname": "Arco AM & PM - Irwindale",
    "address": "16000 E Foothill Blvd",
    "city": "Irwindale",
    "zip": "91702-2812",
    "phone": "626-815-8733",
    "products": "Annual, Daily, Secondary"
  },
  {
    "vendorname": "Arrowbear Liquor & Deli",
    "address": "32861 Hilltop Blvd",
    "city": "Running Springs",
    "zip": "92382",
    "phone": "909-867-2410",
    "products": "Daily"
  },
  {
    "vendorname": "Arrowhead Sporting Goods",
    "address": "28200 Highway 189 #150",
    "city": "Lake Arrowhead",
    "zip": "92352",
    "phone": "909-336-3059",
    "products": "Annual, Daily, Secondary"
  },
  {
    "vendorname": "Azusa Mobile Mart & Car Wash",
    "address": "145 N Azusa Ave",
    "city": "Azusa",
    "zip": "91702",
    "phone": "562-688-6045",
    "products": "Annual, Daily, Secondary"
  },
  {
    "vendorname": "Backroad Market & Liquor",
    "address": "15488 Spunky Canyon Road",
    "city": "Green Valley",
    "zip": "91390-4902",
    "phone": "661-270-9569",
    "products": "Annual, Daily, Secondary"
  },
  {
    "vendorname": "Base Camp Caf and Info Lounge",
    "address": "16311 Askin Dr",
    "city": "Pine Mountain Club",
    "zip": "93222",
    "phone": "661-805-9327",
    "products": "Annual, Daily, Secondary"
  },
  {
    "vendorname": "Bass Pro Shops",
    "address": "7777 Victoria Gardens Lane",
    "city": "Rancho Cucamonga",
    "zip": "91739",
    "phone": "909-922-5500",
    "products": "Annual, Daily, Secondary"
  },
  {
    "vendorname": "Bear Valley Bikes",
    "address": "40298 Big Bear Blvd",
    "city": "Big Bear Lake",
    "zip": "92315",
    "phone": "909-866-8000",
    "products": "Annual, Daily, Secondary"
  },
  {
    "vendorname": "Beaumont Do It Best Home Center",
    "address": "1538 E 6th St",
    "city": "Beaumont",
    "zip": "92223",
    "phone": "951-845-2293",
    "products": "Annual, Daily, Secondary"
  },
  {
    "vendorname": "Benny's Liquor",
    "address": "208 N Azusa Ave",
    "city": "Azusa",
    "zip": "91702",
    "phone": "626-815-9948",
    "products": "Annual, Daily, Secondary"
  },
  {
    "vendorname": "Best Gas of Big Bear, Inc",
    "address": "101 W Big Bear Blvd",
    "city": "Big Bear City",
    "zip": "92314",
    "phone": "909-547-6909",
    "products": "Annual, Daily, Secondary"
  },
  {
    "vendorname": "Big 5 # 003",
    "address": "364 E H St",
    "city": "Chula Vista",
    "zip": "91910",
    "phone": "619-427-6900",
    "products": "Annual, Daily, Secondary"
  },
  {
    "vendorname": "Big 5 # 011",
    "address": "6601 Wilshire Blvd",
    "city": "Los Angeles",
    "zip": "90048",
    "phone": "323-651-2909",
    "products": "Annual, Daily, Secondary"
  },
  {
    "vendorname": "Big 5 # 013",
    "address": "7000 Topanga Canyon Blvd",
    "city": "Canoga Park",
    "zip": "91303",
    "phone": "818-346-3355",
    "products": "Annual, Daily, Secondary"
  },
  {
    "vendorname": "Big 5 # 015",
    "address": "5247 Lakewood Blvd",
    "city": "Lakewood",
    "zip": "90712",
    "phone": "562-634-7779",
    "products": "Annual, Daily, Secondary"
  },
  {
    "vendorname": "Big 5 # 018",
    "address": "4343 Sepulveda Blvd",
    "city": "Culver City",
    "zip": "90230",
    "phone": "310-397-0645",
    "products": "Annual, Daily, Secondary"
  },
  {
    "vendorname": "Big 5 # 019",
    "address": "2324 Harbor Blvd",
    "city": "Costa Mesa",
    "zip": "92626",
    "phone": "714-545-0047",
    "products": "Annual, Daily, Secondary"
  },
  {
    "vendorname": "Big 5 # 023",
    "address": "520 E First St",
    "city": "Tustin",
    "zip": "92680",
    "phone": "714-544-9808",
    "products": "Annual, Daily, Secondary"
  },
  {
    "vendorname": "Big 5 # 026",
    "address": "3600 Peck Rd",
    "city": "El Monte",
    "zip": "91731",
    "phone": "626-579-6585",
    "products": "Annual, Daily, Secondary"
  },
  {
    "vendorname": "Big 5 # 027",
    "address": "9100 E Firestone Blvd",
    "city": "Downey",
    "zip": "90241",
    "phone": "562-861-8719",
    "products": "Annual, Daily, Secondary"
  },
  {
    "vendorname": "Big 5 # 028",
    "address": "4838 Convoy St",
    "city": "San Diego",
    "zip": "92111",
    "phone": "858-560-0311",
    "products": "Annual, Daily, Secondary"
  },
  {
    "vendorname": "Big 5 # 033",
    "address": "3729 Rosecrans St",
    "city": "San Diego",
    "zip": "92110",
    "phone": "619-298-3350",
    "products": "Annual, Daily, Secondary"
  },
  {
    "vendorname": "Big 5 # 037",
    "address": "245 North E. St",
    "city": "San Bernardino",
    "zip": "92401",
    "phone": "909-885-4006",
    "products": "Annual, Daily, Secondary"
  },
  {
    "vendorname": "Big 5 # 038",
    "address": "2445 N Tustin St",
    "city": "Orange",
    "zip": "92665",
    "phone": "714-637-9710",
    "products": "Annual, Daily, Secondary"
  },
  {
    "vendorname": "Big 5 # 040",
    "address": "666 Fletcher Parkway",
    "city": "El Cajon",
    "zip": "92020",
    "phone": "619-444-8139",
    "products": "Annual, Daily, Secondary"
  },
  {
    "vendorname": "Big 5 # 042",
    "address": "3214 Ming Ave",
    "city": "Bakersfield",
    "zip": "93304",
    "phone": "661-832-4161",
    "products": "Annual, Daily, Secondary"
  },
  {
    "vendorname": "Big 5 # 043",
    "address": "6491 Magnolia Ave",
    "city": "Riverside",
    "zip": "92506",
    "phone": "951-785-5957",
    "products": "Annual, Daily, Secondary"
  },
  {
    "vendorname": "Big 5 # 056",
    "address": "24314 Swartz Dr",
    "city": "El Toro",
    "zip": "92630",
    "phone": "949-951-6311",
    "products": "Annual, Daily, Secondary"
  },
  {
    "vendorname": "Big 5 # 057",
    "address": "2320 Harbor Blvd",
    "city": "Anaheim",
    "zip": "92802",
    "phone": "714-750-3055",
    "products": "Annual, Daily, Secondary"
  },
  {
    "vendorname": "Big 5 # 059",
    "address": "1203 E Los Angeles Ave",
    "city": "Simi Valley",
    "zip": "93065",
    "phone": "805-522-6101",
    "products": "Annual, Daily, Secondary"
  },
  {
    "vendorname": "Big 5 # 060",
    "address": "16900 San Fernando Mission Rd",
    "city": "Granada Hills",
    "zip": "91344",
    "phone": "818-366-3123",
    "products": "Annual, Daily, Secondary"
  },
  {
    "vendorname": "Big 5 # 061",
    "address": "3121 Wilshire Blvd",
    "city": "Santa Monica",
    "zip": "90403",
    "phone": "310-453-1747",
    "products": "Annual, Daily, Secondary"
  },
  {
    "vendorname": "Big 5 # 064",
    "address": "3935 State St",
    "city": "Santa Barbara",
    "zip": "93105",
    "phone": "805-964-4749",
    "products": "Annual, Daily, Secondary"
  },
  {
    "vendorname": "Big 5 # 066",
    "address": "7250 Van Nuys Blvd",
    "city": "Van Nuys",
    "zip": "91405",
    "phone": "818-785-3773",
    "products": "Annual, Daily, Secondary"
  },
  {
    "vendorname": "Big 5 # 070",
    "address": "1610 W Whittier Blvd",
    "city": "La Habra",
    "zip": "91786",
    "phone": "562-694-5488",
    "products": "Annual, Daily, Secondary"
  },
  {
    "vendorname": "Big 5 # 073",
    "address": "2301 Vista Way",
    "city": "Oceanside",
    "zip": "92054",
    "phone": "760-757-4154",
    "products": "Annual, Daily, Secondary"
  },
  {
    "vendorname": "Big 5 # 076",
    "address": "17390 Colima Rd",
    "city": "Rowland Heights",
    "zip": "91748",
    "phone": "626-912-6831",
    "products": "Annual, Daily, Secondary"
  },
  {
    "vendorname": "Big 5 # 077",
    "address": "3719 E Colorado Blvd",
    "city": "Pasadena",
    "zip": "91107",
    "phone": "626-795-3111",
    "products": "Annual, Daily, Secondary"
  },
  {
    "vendorname": "Big 5 # 090",
    "address": "1253 E. Valley Parkway",
    "city": "Escondido",
    "zip": "92027",
    "phone": "760-480-6860",
    "products": "Annual, Daily, Secondary"
  },
  {
    "vendorname": "Big 5 # 091",
    "address": "11310 183rd St",
    "city": "Cerritos",
    "zip": "90701",
    "phone": "562-860-5411",
    "products": "Annual, Daily, Secondary"
  },
  {
    "vendorname": "Big 5 # 094",
    "address": "2745 Pacific Coast Hwy",
    "city": "Torrance",
    "zip": "90505",
    "phone": "310-326-9528",
    "products": "Annual, Daily, Secondary"
  },
  {
    "vendorname": "Big 5 # 098",
    "address": "12033 Ventura Place",
    "city": "Studio City",
    "zip": "91604",
    "phone": "818-769-5526",
    "products": "Annual, Daily, Secondary"
  },
  {
    "vendorname": "Big 5 # 104",
    "address": "24329 W Magic Mountain Parkway",
    "city": "Valencia",
    "zip": "91355",
    "phone": "661-253-1832",
    "products": "Annual, Daily, Secondary"
  },
  {
    "vendorname": "Big 5 # 105",
    "address": "8990 Knott Ave",
    "city": "Buena Park",
    "zip": "90620",
    "phone": "714-229-0135",
    "products": "Annual, Daily, Secondary"
  },
  {
    "vendorname": "Big 5 # 106",
    "address": "14390 Bear Valley Rd",
    "city": "Victorville",
    "zip": "92392",
    "phone": "760-241-8655",
    "products": "Annual, Daily, Secondary"
  },
  {
    "vendorname": "Big 5 # 108",
    "address": "96 E Orangethorpe Ave",
    "city": "Anaheim",
    "zip": "92801",
    "phone": "714-871-3290",
    "products": "Annual, Daily, Secondary"
  },
  {
    "vendorname": "Big 5 # 109",
    "address": "510 N Victory Blvd",
    "city": "Burbank",
    "zip": "91502",
    "phone": "818-842-5479",
    "products": "Annual, Daily, Secondary"
  },
  {
    "vendorname": "Big 5 # 110",
    "address": "5250 Philadelphia St",
    "city": "Chino",
    "zip": "91710",
    "phone": "909-591-0955",
    "products": "Annual, Daily, Secondary"
  },
  {
    "vendorname": "Big 5 # 111",
    "address": "10251 Magnolia Ave",
    "city": "Riverside",
    "zip": "92503",
    "phone": "951-785-5957",
    "products": "Annual, Daily, Secondary"
  },
  {
    "vendorname": "Big 5 # 112",
    "address": "43521 13th Street West",
    "city": "Lancaster",
    "zip": "93534",
    "phone": "661-948-4551",
    "products": "Annual, Daily, Secondary"
  },
  {
    "vendorname": "Big 5 # 114",
    "address": "305 Towne Center West",
    "city": "Santa Maria",
    "zip": "93454",
    "phone": "805-349-1255",
    "products": "Annual, Daily, Secondary"
  },
  {
    "vendorname": "Big 5 # 115",
    "address": "1073 West Arrow Highway",
    "city": "San Dimas",
    "zip": "91773",
    "phone": "909-592-0886",
    "products": "Annual, Daily, Secondary"
  },
  {
    "vendorname": "Big 5 # 116",
    "address": "9426 Whittier Blvd",
    "city": "Pico Rivera",
    "zip": "90660",
    "phone": "562-949-6988",
    "products": "Annual, Daily, Secondary"
  },
  {
    "vendorname": "Big 5 # 120",
    "address": "620 E Valley Blvd",
    "city": "Alhambra",
    "zip": "91801",
    "phone": "626-281-6753",
    "products": "Annual, Daily, Secondary"
  },
  {
    "vendorname": "Big 5 # 121",
    "address": "8145 Mira Mesa Blvd",
    "city": "San Diego",
    "zip": "92126",
    "phone": "858-693-4941",
    "products": "Annual, Daily, Secondary"
  },
  {
    "vendorname": "Big 5 # 127",
    "address": "6061 El Cajon Blvd",
    "city": "San Diego",
    "zip": "92115",
    "phone": "619-583-7930",
    "products": "Annual, Daily, Secondary"
  },
  {
    "vendorname": "Big 5 # 131",
    "address": "9120 Reseda Blvd",
    "city": "Northridge",
    "zip": "91324",
    "phone": "818-993-5227",
    "products": "Annual, Daily, Secondary"
  },
  {
    "vendorname": "Big 5 # 133",
    "address": "3831 Alton Parkway Suite A.",
    "city": "Irvine",
    "zip": "92714",
    "phone": "949-833-0840",
    "products": "Annual, Daily, Secondary"
  },
  {
    "vendorname": "Big 5 # 134",
    "address": "7111 Eastern Ave",
    "city": "Bell Gardens",
    "zip": "90201",
    "phone": "323-560-4815",
    "products": "Annual, Daily, Secondary"
  },
  {
    "vendorname": "Big 5 # 137",
    "address": "2515 El Segundo Blvd",
    "city": "El Segundo",
    "zip": "90245",
    "phone": "310-297-7777",
    "products": "Annual, Daily, Secondary"
  },
  {
    "vendorname": "Big 5 # 139",
    "address": "529 S GaffeySt",
    "city": "San Pedro",
    "zip": "90731",
    "phone": "310-519-1339",
    "products": "Annual, Daily, Secondary"
  },
  {
    "vendorname": "Big 5 # 142",
    "address": "2150 E Highland Ave",
    "city": "San Bernardino",
    "zip": "92404",
    "phone": "909-862-1940",
    "products": "Annual, Daily, Secondary"
  },
  {
    "vendorname": "Big 5 # 144",
    "address": "10570 E Foothill Blvd",
    "city": "Rancho Cucamonga",
    "zip": "91730",
    "phone": "909-466-7955",
    "products": "Annual, Daily, Secondary"
  },
  {
    "vendorname": "Big 5 # 145",
    "address": "23901 Sunnymead Blvd",
    "city": "Moreno Valley",
    "zip": "92553",
    "phone": "951-924-2552",
    "products": "Annual, Daily, Secondary"
  },
  {
    "vendorname": "Big 5 # 146",
    "address": "16873 Valley Blvd",
    "city": "Fontana",
    "zip": "92335",
    "phone": "909-350-8973",
    "products": "Annual, Daily, Secondary"
  },
  {
    "vendorname": "Big 5 # 148",
    "address": "43 W Thousand Oaks Blvd",
    "city": "Thousand Oaks",
    "zip": "91360",
    "phone": "805-497-3233",
    "products": "Annual, Daily, Secondary"
  },
  {
    "vendorname": "Big 5 # 150",
    "address": "2062 S Atlantic Blvd",
    "city": "Monterey Park",
    "zip": "91754",
    "phone": "323-890-0981",
    "products": "Annual, Daily, Secondary"
  },
  {
    "vendorname": "Big 5 # 157",
    "address": "34101 Doheny Park Rd",
    "city": "Capistrano Beach",
    "zip": "92624",
    "phone": "949-489-5648",
    "products": "Annual, Daily, Secondary"
  },
  {
    "vendorname": "Big 5 # 162",
    "address": "905 N Imperial Ave",
    "city": "El Centro",
    "zip": "92243",
    "phone": "760-370-0530",
    "products": "Annual, Daily, Secondary"
  },
  {
    "vendorname": "Big 5 # 171",
    "address": "4780 Pacific Coast Hwy",
    "city": "Long Beach",
    "zip": "90804",
    "phone": "562-498-7994",
    "products": "Annual, Daily, Secondary"
  },
  {
    "vendorname": "Big 5 # 173",
    "address": "1573 W Redlands Blvd",
    "city": "Redlands",
    "zip": "92373",
    "phone": "909-335-5950",
    "products": "Annual, Daily, Secondary"
  },
  {
    "vendorname": "Big 5 # 180",
    "address": "1512 N H St",
    "city": "Lompoc",
    "zip": "93436",
    "phone": "805-735-1167",
    "products": "Annual, Daily, Secondary"
  },
  {
    "vendorname": "Big 5 # 185",
    "address": "25274 Madison Ave",
    "city": "Murrieta",
    "zip": "92562",
    "phone": "951-698-8345",
    "products": "Annual, Daily, Secondary"
  },
  {
    "vendorname": "Big 5 # 188",
    "address": "17019 Ventura Blvd",
    "city": "Encino",
    "zip": "91316",
    "phone": "818-905-7213",
    "products": "Annual, Daily, Secondary"
  },
  {
    "vendorname": "Big 5 # 190",
    "address": "320 N McKinley St",
    "city": "Corona",
    "zip": "91719",
    "phone": "951-734-9449",
    "products": "Annual, Daily, Secondary"
  },
  {
    "vendorname": "Big 5 # 204",
    "address": "30682 Santa Margarita Pkwy",
    "city": "Rancho Santa Margarita",
    "zip": "92688",
    "phone": "949-888-1378",
    "products": "Annual, Daily, Secondary"
  },
  {
    "vendorname": "Big 5 # 209",
    "address": "2920 W Florida Ave",
    "city": "Hemet",
    "zip": "92543",
    "phone": "951-929-6140",
    "products": "Annual, Daily, Secondary"
  },
  {
    "vendorname": "Big 5 # 213",
    "address": "170 Niblik Road",
    "city": "Paso Robles",
    "zip": "93446",
    "phone": "805-239-2463",
    "products": "Annual, Daily, Secondary"
  },
  {
    "vendorname": "Big 5 # 223",
    "address": "949 Lomas Santa Fe Dr",
    "city": "Solana Beach",
    "zip": "92075",
    "phone": "858-755-5953",
    "products": "Annual, Daily, Secondary"
  },
  {
    "vendorname": "Big 5 # 228",
    "address": "13440 Whittier Blvd",
    "city": "Whittier",
    "zip": "90605",
    "phone": "562-693-2815",
    "products": "Annual, Daily, Secondary"
  },
  {
    "vendorname": "Big 5 # 230",
    "address": "16773 Bernardo Center Dr",
    "city": "Ranch Bernardo",
    "zip": "92128",
    "phone": "858-673-9219",
    "products": "Annual, Daily, Secondary"
  },
  {
    "vendorname": "Big 5 # 259",
    "address": "20455 Yorba Linda Blvd",
    "city": "Yorba Linda",
    "zip": "92886",
    "phone": "714-777-1422",
    "products": "Annual, Daily, Secondary"
  },
  {
    "vendorname": "Big 5 # 272",
    "address": "3203 Mall View Road",
    "city": "Bakersfield",
    "zip": "93306",
    "phone": "661-872-4947",
    "products": "Annual, Daily, Secondary"
  },
  {
    "vendorname": "Big 5 # 273",
    "address": "3420 Wilshire Blvd",
    "city": "Los Angeles",
    "zip": "90010",
    "phone": "213-487-1688",
    "products": "Annual, Daily, Secondary"
  },
  {
    "vendorname": "Big 5 # 283",
    "address": "37026 47th St East",
    "city": "Palmdale",
    "zip": "93552",
    "phone": "661-285-1653",
    "products": "Annual, Daily, Secondary"
  },
  {
    "vendorname": "Big 5 # 290",
    "address": "760 Sycamore Ave",
    "city": "Vista",
    "zip": "92083",
    "phone": "760-727-2859",
    "products": "Annual, Daily, Secondary"
  },
  {
    "vendorname": "Big 5 # 305",
    "address": "58111 Twentynine Palms Hwy",
    "city": "Yucca Valley",
    "zip": "92284",
    "phone": "760-228-1680",
    "products": "Annual, Daily, Secondary"
  },
  {
    "vendorname": "Big 5 # 313",
    "address": "78710 Highway 111",
    "city": "La Quinta",
    "zip": "92253",
    "phone": "760-771-6626",
    "products": "Annual, Daily, Secondary"
  },
  {
    "vendorname": "Big 5 # 318",
    "address": "72284 Highway 111",
    "city": "Palm Desert",
    "zip": "92260",
    "phone": "760-340-3358",
    "products": "Annual, Daily, Secondary"
  },
  {
    "vendorname": "Big 5 # 325",
    "address": "9805 Campo Road Ste. 195",
    "city": "Spring Valley",
    "zip": "91977",
    "phone": "619-644-5733",
    "products": "Annual, Daily, Secondary"
  },
  {
    "vendorname": "Big 5 # 326",
    "address": "595 Saturn Blvd",
    "city": "San Diego",
    "zip": "92154",
    "phone": "619-628-0018",
    "products": "Annual, Daily, Secondary"
  },
  {
    "vendorname": "Big 5 # 330",
    "address": "205 East 4th Street, B-115 ",
    "city": "Long Beach",
    "zip": "90802",
    "phone": "562-495-3034",
    "products": "Annual, Daily, Secondary"
  },
  {
    "vendorname": "Big 5 # 334",
    "address": "144 N Central Ave",
    "city": "Glendale",
    "zip": "91203",
    "phone": "818-246-1100",
    "products": "Annual, Daily, Secondary"
  },
  {
    "vendorname": "Big 5 # 337",
    "address": "20700 S Avalon Blvd",
    "city": "Carson",
    "zip": "90746",
    "phone": "310-538-5340",
    "products": "Annual, Daily, Secondary"
  },
  {
    "vendorname": "Big 5 # 340",
    "address": "3975 Grand Ave",
    "city": "Chino",
    "zip": "91761",
    "phone": "909-464-9735",
    "products": "Annual, Daily, Secondary"
  },
  {
    "vendorname": "Big 5 # 346",
    "address": "829 N Oak Park Blvd",
    "city": "Pismo Beach ",
    "zip": "92449",
    "phone": "805-473-1709",
    "products": "Annual, Daily, Secondary"
  },
  {
    "vendorname": "Big 5 # 349",
    "address": "1809 N Hacienda Blvd",
    "city": "La Puente",
    "zip": "91744",
    "phone": "626-917-6471",
    "products": "Annual, Daily, Secondary"
  },
  {
    "vendorname": "Big 5 # 352",
    "address": "3740 Crenshaw Blvd",
    "city": "Los Angeles",
    "zip": "90016",
    "phone": "323-295-9265",
    "products": "Annual, Daily, Secondary"
  },
  {
    "vendorname": "Big 5 # 353",
    "address": "1421 W 17th St",
    "city": "Santa Ana",
    "zip": "92706",
    "phone": "714-564-0356",
    "products": "Annual, Daily, Secondary"
  },
  {
    "vendorname": "Big 5 # 364",
    "address": "33385 Hwy 79 South",
    "city": "Temecula",
    "zip": "92592",
    "phone": "951-302-9428",
    "products": "Annual, Daily, Secondary"
  },
  {
    "vendorname": "Big 5 # 368",
    "address": "19403 Victory Blvd Suite 23",
    "city": "Reseda",
    "zip": "91335",
    "phone": "818-776-1596",
    "products": "Annual, Daily, Secondary"
  },
  {
    "vendorname": "Big 5 # 369",
    "address": "18298 Collier Avenue",
    "city": "Lake Elsinore",
    "zip": "92530",
    "phone": "951-471-1362",
    "products": "Annual, Daily, Secondary"
  },
  {
    "vendorname": "Big 5 # 372",
    "address": "543 N Azusa Ave",
    "city": "Covina",
    "zip": "91722",
    "phone": "626-966-9487",
    "products": "Annual, Daily, Secondary"
  },
  {
    "vendorname": "Big 5 # 374",
    "address": "2259 N Fremont St",
    "city": "Monterey",
    "zip": "93940",
    "phone": "831-375-8800",
    "products": "Annual, Daily, Secondary"
  },
  {
    "vendorname": "Big 5 # 379",
    "address": "2120 El Camino Real",
    "city": "Atascadero",
    "zip": "93422",
    "phone": "805-461-0973",
    "products": "Annual, Daily, Secondary"
  },
  {
    "vendorname": "Big 5 # 388",
    "address": "19083 Bear Valley",
    "city": "Apple Valley",
    "zip": "93422",
    "phone": "760-240-1896",
    "products": "Annual, Daily, Secondary"
  },
  {
    "vendorname": "Big 5 # 395",
    "address": "3970 East Main Street",
    "city": "Ventura",
    "zip": "93003",
    "phone": "805-636-9216",
    "products": "Annual, Daily, Secondary"
  },
  {
    "vendorname": "Big 5 # 396",
    "address": "7604 Alameda St",
    "city": "Huntington Park",
    "zip": "90255",
    "phone": "323-588-0615",
    "products": "Annual, Daily, Secondary"
  },
  {
    "vendorname": "Big 5 # 400",
    "address": "101 W Nuevo Rd",
    "city": "Perris",
    "zip": "92571",
    "phone": "951-657-5893",
    "products": "Annual, Daily, Secondary"
  },
  {
    "vendorname": "Big 5 # 402",
    "address": "16963 Sierra Lakes Pkwy",
    "city": "Fontana",
    "zip": "92336",
    "phone": "909-355-2192",
    "products": "Annual, Daily, Secondary"
  },
  {
    "vendorname": "Big 5 # 414",
    "address": "19232 Soledad Canyon Road",
    "city": "Canyon Country",
    "zip": "91351",
    "phone": "661-252-2136",
    "products": "Annual, Daily, Secondary"
  },
  {
    "vendorname": "Big 5 # 417",
    "address": "685 Tucker Road",
    "city": "Tehachapi",
    "zip": "93561",
    "phone": "661-822-4197",
    "products": "Annual, Daily, Secondary"
  },
  {
    "vendorname": "Big 5 # 418",
    "address": "2361 N Oxnard Blvd",
    "city": "Oxnard",
    "zip": "93036",
    "phone": "805-485-1910",
    "products": "Annual, Daily, Secondary"
  },
  {
    "vendorname": "Big 5 # 429",
    "address": "2590 Las Posas Rd",
    "city": "Camarillo",
    "zip": "93010",
    "phone": "805-383-9083",
    "products": "Annual, Daily, Secondary"
  },
  {
    "vendorname": "Big 5 # 430",
    "address": "11310 Crenshaw Blvd",
    "city": "Inglewood",
    "zip": "90303",
    "phone": "323-755-2663",
    "products": "Annual, Daily, Secondary"
  },
  {
    "vendorname": "Big 5 # 431",
    "address": "18621 Main St",
    "city": "Huntington Beach",
    "zip": "92648",
    "phone": "714-842-1201",
    "products": "Annual, Daily, Secondary"
  },
  {
    "vendorname": "Big 5 # 434",
    "address": "159 W. Polk St., Ste205",
    "city": "Coalinga",
    "zip": "93210",
    "phone": "559-934-0739",
    "products": "Annual, Daily, Secondary"
  },
  {
    "vendorname": "Big 5 # 436",
    "address": "15254 Rosecrans Ave",
    "city": "La Mirada",
    "zip": "90638",
    "phone": "714-523-3501",
    "products": "Annual, Daily, Secondary"
  },
  {
    "vendorname": "Big 5 # 442",
    "address": "1312 Main St",
    "city": "Ramona",
    "zip": "92065",
    "phone": "760-787-0726",
    "products": "Annual, Daily, Secondary"
  },
  {
    "vendorname": "Big 5 # 444",
    "address": "2465 E Palm Canyon Dr",
    "city": "Palm Springs",
    "zip": "92664",
    "phone": "760-325-0255",
    "products": "Annual, Daily, Secondary"
  },
  {
    "vendorname": "Big 5 # 450",
    "address": "80 W Foothill Blvd",
    "city": "Upland",
    "zip": "91786",
    "phone": "909-982-3050",
    "products": "Annual, Daily, Secondary"
  },
  {
    "vendorname": "Big 5 # 451",
    "address": "309 E Foothill Blvd",
    "city": "Pomona",
    "zip": "91767",
    "phone": "909-596-6324",
    "products": "Annual, Daily, Secondary"
  },
  {
    "vendorname": "Big 5 # 456",
    "address": "41385 Big Bear Blvd",
    "city": "Big Bear Lake",
    "zip": "92315",
    "phone": "909-866-2730",
    "products": "Annual, Daily, Secondary"
  },
  {
    "vendorname": "Big 5 # 463",
    "address": "12630 Poway Rd",
    "city": "Poway",
    "zip": "92064",
    "phone": "858-513-2666",
    "products": "Annual, Daily, Secondary"
  },
  {
    "vendorname": "Big 5 # 467",
    "address": "49301 Grapefruit Blvd",
    "city": "Coachella",
    "zip": "92236",
    "phone": "760-398-1383",
    "products": "Annual, Daily, Secondary"
  },
  {
    "vendorname": "Big 5 # 474",
    "address": "568 W Main St",
    "city": "Santa Paula",
    "zip": "93060",
    "phone": "805-933-2300",
    "products": "Annual, Daily, Secondary"
  },
  {
    "vendorname": "Big 5 # 477",
    "address": "720 Woollomes Ave. Ste 104",
    "city": "Delano",
    "zip": "92315",
    "phone": "661-721-2455",
    "products": "Annual, Daily, Secondary"
  },
  {
    "vendorname": "Big 5 # 478",
    "address": "3910 Broad Street Ste 3",
    "city": "San Luis Obispo",
    "zip": "93401",
    "phone": "805-783-2340",
    "products": "Annual, Daily, Secondary"
  },
  {
    "vendorname": "Big 5 # 481",
    "address": "31033 Data Palm Drive",
    "city": "Catheral City",
    "zip": "92234",
    "phone": "760-202-6702",
    "products": "Annual, Daily, Secondary"
  },
  {
    "vendorname": "Big 5 # 486",
    "address": "17542 Hawthorne Blvd",
    "city": "Torrance",
    "zip": "90504",
    "phone": "310-371-7860",
    "products": "Annual, Daily, Secondary"
  },
  {
    "vendorname": "Big 5 # 489",
    "address": "6245 Foothill Blvd",
    "city": "Tujunga",
    "zip": "91042",
    "phone": "818-249-9973",
    "products": "Annual, Daily, Secondary"
  },
  {
    "vendorname": "Big 5 # 490",
    "address": "6314 N Figueroa St",
    "city": "Highland Park",
    "zip": "90042",
    "phone": "323-982-9024",
    "products": "Annual, Daily, Secondary"
  },
  {
    "vendorname": "Big 5 # 492",
    "address": "3239 Camino De Los Coches",
    "city": "Carlsbad",
    "zip": "92009",
    "phone": "760-753-1330",
    "products": "Annual, Daily, Secondary"
  },
  {
    "vendorname": "Big 5 # 493",
    "address": "8052 Limonite Ave. Ste 102",
    "city": "Jurupa Valley",
    "zip": "92509",
    "phone": "951-727-8917",
    "products": "Annual, Daily, Secondary"
  },
  {
    "vendorname": "Big 5 # 496",
    "address": "2421 W Rosecrans Blvd",
    "city": "Gardena",
    "zip": "90249",
    "phone": "310-329--2502",
    "products": "Annual, Daily, Secondary"
  },
  {
    "vendorname": "Big 5 # 498",
    "address": "300 S Highland Springs Ave",
    "city": "Banning",
    "zip": "92220",
    "phone": "951-769-2622",
    "products": "Annual, Daily, Secondary"
  },
  {
    "vendorname": "Big 5 # 505",
    "address": "34579 Yucaipa Blvd",
    "city": "Yucaipa",
    "zip": "92399",
    "phone": "909-790-5682",
    "products": "Annual, Daily, Secondary"
  },
  {
    "vendorname": "Big 5 # 507",
    "address": "827 1st Street",
    "city": "Gilory",
    "zip": "95020",
    "phone": "408-842-0092",
    "products": "Annual, Daily, Secondary"
  },
  {
    "vendorname": "Big 5 # 508",
    "address": "3951 Camino De La Plaza",
    "city": "San Diego",
    "zip": "92173",
    "phone": "619-428-3681",
    "products": "Annual, Daily, Secondary"
  },
  {
    "vendorname": "Big 5 # 509",
    "address": "15930 Dam Road Unit A",
    "city": "Clearlake",
    "zip": "95422",
    "phone": "707-994-4615",
    "products": "Annual, Daily, Secondary"
  },
  {
    "vendorname": "Big 5 # 510",
    "address": "3631 North Freeway Blvd S",
    "city": "Sacramento",
    "zip": "95834",
    "phone": "916-419-8776",
    "products": "Annual, Daily, Secondary"
  },
  {
    "vendorname": "Big 5 Sporting Goods Corp.",
    "address": "2525 E El Segundo Blvd",
    "city": "El Segundo",
    "zip": "90245",
    "phone": "310-536-0611",
    "products": "Annual, Daily, Secondary"
  },
  {
    "vendorname": "Big Bear Chevron",
    "address": "40553 W Big Bear Blvd",
    "city": "Big Bear Lake",
    "zip": "92315",
    "phone": "909-866-9679",
    "products": "Daily"
  },
  {
    "vendorname": "Big Bear Discovery Center",
    "address": "40971 North Shore Drive, Highway 38",
    "city": "Fawnskin",
    "zip": "92333",
    "phone": "909-382-2790",
    "products": "Annual, Daily, Secondary, Interagency Annual, Senior, Access"
  },
  {
    "vendorname": "Big Bear Sporting Goods",
    "address": "40544 Big Bear Blvd",
    "city": "Big Bear Lake",
    "zip": "92315",
    "phone": "909-866-3222",
    "products": "Annual, Daily, Secondary"
  },
  {
    "vendorname": "Big Bear Sundries 76",
    "address": "41339 Big Bear Blvd",
    "city": "Big Bear Lake",
    "zip": "92315",
    "phone": "909-866-8037",
    "products": "Daily"
  },
  {
    "vendorname": "Big Bear Vacations",
    "address": "41693 Big Bear Blvd",
    "city": "Big Bear Lake",
    "zip": "92315",
    "phone": "909-866-8200",
    "products": "Annual, Daily, Secondary"
  },
  {
    "vendorname": "Big Bear Visitor Center",
    "address": "40824 Big Bear Blvd",
    "city": "Big Bear Lake",
    "zip": "92315",
    "phone": "909-866-6190",
    "products": "Annual, Daily, Secondary"
  },
  {
    "vendorname": "Bills Place",
    "address": "16374 Sierra Hwy",
    "city": "Canyon Country",
    "zip": "91387",
    "phone": "661-251-0164",
    "products": "Annual, Daily, Secondary"
  },
  {
    "vendorname": "Blue Jay Lodge",
    "address": "Sunrise Highway",
    "city": "Mt. Laguna",
    "zip": "92109",
    "phone": "619-473-8844",
    "products": "Annual, Daily"
  },
  {
    "vendorname": "Bob Brown Chevron, Inc.",
    "address": "704 West Ventura St",
    "city": "Fillmore",
    "zip": "93015",
    "phone": "805-524-2157",
    "products": "Annual, Daily, Secondary"
  },
  {
    "vendorname": "Boulder Bay Liquor",
    "address": "39176 Big Bear Blvd",
    "city": "Big Bear Lake",
    "zip": "92315",
    "phone": "909-866-4420",
    "products": "Annual, Daily, Secondary"
  },
  {
    "vendorname": "Bouquet Plaza Liquor",
    "address": "28200 Bouquet Cyn Rd",
    "city": "Saugus",
    "zip": "91390",
    "phone": "661-296-0660",
    "products": "Daily"
  },
  {
    "vendorname": "Bouquet Shell",
    "address": "26801 Bouquet Canyon Road",
    "city": "Saugus",
    "zip": "91350",
    "phone": "661-297-7484",
    "products": "Annual, Daily, Secondary"
  },
  {
    "vendorname": "Bungee America",
    "address": "16654 Soledad Cyn Rd",
    "city": "Canyon Country",
    "zip": "91387",
    "phone": "310-322-8892",
    "products": "Annual, Daily, Secondary"
  },
  {
    "vendorname": "C & A Luxor Market",
    "address": "39470 170th St. E.",
    "city": "Palmdale",
    "zip": "93591",
    "phone": "661-264-3959",
    "products": "Annual, Daily, Secondary"
  },
  {
    "vendorname": "C & H Market",
    "address": "4855 Primero St",
    "city": "New Cuyama",
    "zip": "93254",
    "phone": "661-766-2761",
    "products": "Annual, Daily, Secondary"
  },
  {
    "vendorname": "Cabins 4 Less",
    "address": "39212 Big Bear Blvd",
    "city": "Big Bear Lake",
    "zip": "92315",
    "phone": "909-866-3105",
    "products": "Daily"
  },
  {
    "vendorname": "California Land Management",
    "address": "40650 N Shore Lane #102",
    "city": "Fawnskin",
    "zip": "92333",
    "phone": "909-866-8550",
    "products": "Annual, Daily"
  },
  {
    "vendorname": "Camp Williams Caf",
    "address": "24210 E Fork Road #A",
    "city": "Azusa",
    "zip": "91702",
    "phone": "626-910-1126",
    "products": "Daily"
  },
  {
    "vendorname": "Canyon City Liquor",
    "address": "424 W Foothill Blvd",
    "city": "Azusa",
    "zip": "91702",
    "phone": "626-969-2017",
    "products": "Annual, Daily, Secondary"
  },
  {
    "vendorname": "Canyon Market",
    "address": "7421 Hill Rose St",
    "city": "Tujunga",
    "zip": "91042",
    "phone": "818-352-0965",
    "products": "Annual, Daily, Secondary"
  },
  {
    "vendorname": "CAR Enterprises - Cajon Shell",
    "address": "14949 Hwy 138",
    "city": "Phelan",
    "zip": "92371",
    "phone": "909-394-4728",
    "products": "Annual, Daily, Secondary"
  },
  {
    "vendorname": "CAR Enterprises - Eva Shell",
    "address": "1195 W Foothill Blvd",
    "city": "Azusa",
    "zip": "91702",
    "phone": "626-812-9020",
    "products": "Annual, Daily, Secondary"
  },
  {
    "vendorname": "Cedar Glen Trading Post",
    "address": "28946 Hook Creek Road",
    "city": "Cedar Glen",
    "zip": "92321",
    "phone": "909-337-3310",
    "products": "Annual, Daily, Secondary"
  },
  {
    "vendorname": "Chaparral Motorsports",
    "address": "555 S. H St",
    "city": "San Bernardino",
    "zip": "92410",
    "phone": "909-889-2761",
    "products": "Daily"
  },
  {
    "vendorname": "Chevron # 215 -Anaheim",
    "address": "1198 S State College Blvd",
    "city": "Anaheim",
    "zip": "92806",
    "phone": "714-409-3283",
    "products": "Annual, Daily, Secondary"
  },
  {
    "vendorname": "Chevron # 216 - Anaheim",
    "address": "1200 S Harbor Blvd",
    "city": "Anaheim",
    "zip": "92805",
    "phone": "714-616-5058",
    "products": "Annual, Daily, Secondary"
  },
  {
    "vendorname": "Chevron # 222 - Seal Beach",
    "address": "4000 Lampson Ave",
    "city": "Seal Beach",
    "zip": "90740",
    "phone": "562-286-1205",
    "products": "Annual, Daily, Secondary, Interagency Annual"
  },
  {
    "vendorname": "Chevron # 249 - Temecula",
    "address": "29980 Temecula Parkway",
    "city": "Temecula",
    "zip": "92592",
    "phone": "951-297-7304",
    "products": "Annual, Daily, Secondary, Interagency Annual"
  },
  {
    "vendorname": "Chilao Visitor Center",
    "address": "Angeles Crest Highway (Hwy 2)",
    "city": "La Caada",
    "zip": "91011",
    "phone": "626-796-5541",
    "products": "Annual, Daily, Secondary, Interagency Annual, Senior, Access"
  },
  {
    "vendorname": "Chirp Nature Center",
    "address": "40850 Village Dr",
    "city": "Big Bear Lake",
    "zip": "92315",
    "phone": "888-412-4477",
    "products": "Annual, Daily, Secondary"
  },
  {
    "vendorname": "Clear Creek Information Center",
    "address": "Angeles Crest Highway (Hwy 2)",
    "city": "La Caada",
    "zip": "91011",
    "phone": "626-821-6764",
    "products": "Annual, Daily, Secondary, Interagency Annual, Senior, Access"
  },
  {
    "vendorname": "Cleveland National Forest",
    "address": "10845 Rancho Bernardo Rd",
    "city": "San Diego",
    "zip": "92127",
    "phone": "858-674-2935",
    "products": "Annual, Daily, Secondary, Interagency Annual, Senior, Access"
  },
  {
    "vendorname": "Conoco Castaic 76",
    "address": "31786 The Old Road",
    "city": "Castaic",
    "zip": "91384",
    "phone": "661-257-2497",
    "products": "Annual, Daily, Secondary"
  },
  {
    "vendorname": "Crystal Lake Caf & Store",
    "address": "9877 Crystal Lake Rd",
    "city": "Azusa",
    "zip": "91702",
    "phone": "626-910-1029",
    "products": "Daily"
  },
  {
    "vendorname": "Descanso Trading Post",
    "address": "8332 Hwy 79",
    "city": "Descanso",
    "zip": "91916",
    "phone": "619-445-5211",
    "products": "Annual, Daily, Secondary"
  },
  {
    "vendorname": "Desert Map And Aerial",
    "address": "73612 Hwy 111",
    "city": "Palm Desert",
    "zip": "92260",
    "phone": "760-346-1101",
    "products": "Annual, Daily, Secondary, Interagency Annual"
  },
  {
    "vendorname": "Diana Liquor & Market",
    "address": "200 W Foothill Blvd., Suite 1",
    "city": "Azusa",
    "zip": "91702",
    "phone": "626-812-9534",
    "products": "Annual, Daily, Secondary"
  },
  {
    "vendorname": "Dons Liquor Mart",
    "address": "616 Monterey Trial",
    "city": "Frazier Park",
    "zip": "93225",
    "phone": "661-245-1712",
    "products": "Annual, Daily, Secondary"
  },
  {
    "vendorname": "Elkhorn General Store",
    "address": "40987 Valley of the Falls Dr",
    "city": "Forest Falls",
    "zip": "92339",
    "phone": "909-794-1212",
    "products": "Annual, Daily"
  },
  {
    "vendorname": "Enjoy the Mountain",
    "address": "29121 Hook Creek Rd",
    "city": "Cedar Glen",
    "zip": "92321",
    "phone": "909-366-5363",
    "products": "Annual, Daily, Secondary"
  },
  {
    "vendorname": "Fawnskin Market",
    "address": "39187 N Shore Dr",
    "city": "Fawnskin",
    "zip": "92333",
    "phone": "909-366-0900",
    "products": "Annual, Daily, Secondary"
  },
  {
    "vendorname": "Fern Valley Emporium",
    "address": "54965 Pine Crest Ave",
    "city": "Idyllwild",
    "zip": "92549",
    "phone": "951-659-1926",
    "products": "Annual, Daily, Secondary"
  },
  {
    "vendorname": "Fisheries Resources Vol. Corp",
    "address": "Kiosk-Lower San Antonio Fire Station",
    "city": "Upland",
    "zip": "91784",
    "phone": "626-797-4616",
    "products": "Annual, Daily, Secondary",
    "uncertainAddress": "true"
  },
  {
    "vendorname": "Forest Service Volunteer Association",
    "address": "54270 Pinecrest Rd",
    "city": "Idyllwild",
    "zip": "92549",
    "phone": "909-659-2117",
    "products": "Annual, Daily, Secondary"
  },
  {
    "vendorname": "Freeway Shell",
    "address": "400 W Palmdale Blvd",
    "city": "Palmdale",
    "zip": "92351-4242",
    "phone": "661-273-0212",
    "products": "Annual, Daily, Secondary"
  },
  {
    "vendorname": "Friends Of The Desert Mountains",
    "address": "51500 Hwy 74",
    "city": "Palm Desert",
    "zip": "92260",
    "phone": "760-568-9918",
    "products": "Annual, Daily, Secondary"
  },
  {
    "vendorname": "Gallions Castaic Corner",
    "address": "31515 Ridge Route Rd",
    "city": "Castaic",
    "zip": "91384-3358",
    "phone": "661-257-3523",
    "products": "Annual, Daily, Secondary"
  },
  {
    "vendorname": "George's Liquor Store",
    "address": "3061 N Lincoln Ave",
    "city": "Altadena",
    "zip": "91001-4534",
    "phone": "626-794-5776",
    "products": "Annual, Daily, Secondary"
  },
  {
    "vendorname": "GetBoards.com",
    "address": "40905 Big Bear Blvd",
    "city": "Big Bear Lake",
    "zip": "92315",
    "phone": "909-878-3155",
    "products": "Annual, Daily, Secondary"
  },
  {
    "vendorname": "GetBoards.com - Boulder Bay",
    "address": "39166 Big Bear Blvd",
    "city": "Big Bear Lake",
    "zip": "92315",
    "phone": "909-878-3155",
    "products": "Annual, Daily, Secondary"
  },
  {
    "vendorname": "Gold Rush Resort Rentals & Giftshop",
    "address": "40016 Big Bear Blvd",
    "city": "Big Bear Lake",
    "zip": "92315",
    "phone": "909-866-5678",
    "products": "Annual, Daily, Secondary"
  },
  {
    "vendorname": "Goose Valley Ranger Station",
    "address": "1634 Black Canyon Rd",
    "city": "Ramona",
    "zip": "92065",
    "phone": "760-788-0250",
    "products": "Annual, Daily, Secondary, Interagency Annual, Senior, Access"
  },
  {
    "vendorname": "Gorman Market & Liquor",
    "address": "49744-2 Gorman Post Rd",
    "city": "Lebec",
    "zip": "93243",
    "phone": "661-248-6398",
    "products": "Annual, Daily, Secondary"
  },
  {
    "vendorname": "Grassy Hollow Visitor Center",
    "address": "Angeles Crest Highway (Hwy 2)",
    "city": "Wrightwood",
    "zip": "92397",
    "phone": "626-821-6737",
    "products": "Annual, Daily, Secondary, Interagency Annual, Senior, Access"
  },
  {
    "vendorname": "Green Valley Market",
    "address": "16166 Spunky Canyon Rd",
    "city": "Santa Clarita",
    "zip": "91390",
    "phone": "661-270-0444",
    "products": "Annual, Daily"
  },
  {
    "vendorname": "Greenspot Market",
    "address": "2402 Mill Creek Rd",
    "city": "Mentone",
    "zip": "92359",
    "phone": "909-794-1511",
    "products": "Annual, Daily, Secondary"
  },
  {
    "vendorname": "Gun Locker",
    "address": "11873 Hesperia Rd",
    "city": "Hesperia",
    "zip": "92345",
    "phone": "909-518-4571",
    "products": "Annual, Daily, Secondary"
  },
  {
    "vendorname": "Hafey Farms Mountain Market",
    "address": "32692 Ortega Hwy ",
    "city": "Lake Elsinore",
    "zip": "92530-6561",
    "phone": "951-579-8289",
    "products": "Annual, Daily, Secondary"
  },
  {
    "vendorname": "HaramokngnaCultural Center",
    "address": "HC1 Box 6 Mt Wilson Red Box Rd",
    "city": "Mount Wilson",
    "zip": "91023",
    "phone": "626-449-8975",
    "products": "Annual, Daily, Secondary"
  },
  {
    "vendorname": "Hesperia Mesa Mart",
    "address": "18920 Danbury Ave",
    "city": "Hesperia",
    "zip": "92345",
    "phone": "760-244-7175",
    "products": "Annual, Daily, Secondary"
  },
  {
    "vendorname": "High Mountain Market",
    "address": "3221 Mt Pinos Way",
    "city": "Frazier Park",
    "zip": "93225",
    "phone": "661-245-0770",
    "products": "Daily"
  },
  {
    "vendorname": "Idyllwild Chevron",
    "address": "25015 Hwy 243",
    "city": "Idyllwild",
    "zip": "92549",
    "phone": "951-659-3867",
    "products": "Annual, Daily"
  },
  {
    "vendorname": "Idyllwild Shell",
    "address": "26128 Hwy 243",
    "city": "Idyllwild",
    "zip": "92549",
    "phone": "951-659-3437",
    "products": "Daily"
  },
  {
    "vendorname": "Idyllwild Town Crier",
    "address": "54425 N Circle Dr",
    "city": "Idyllwild",
    "zip": "92549",
    "phone": "951-659-2145",
    "products": "Annual, Daily, Secondary"
  },
  {
    "vendorname": "Idyllwild Village Center",
    "address": "25225 CA-243",
    "city": "Idyllwild",
    "zip": "92549",
    "phone": "951-659-3850",
    "products": "Annual, Daily, Secondary"
  },
  {
    "vendorname": "Idyllwild Village Market",
    "address": "26000 Hwy 243",
    "city": "Idyllwild",
    "zip": "92549",
    "phone": "951-659-3800",
    "products": "Annual, Daily, Secondary"
  },
  {
    "vendorname": "Incycle",
    "address": "175 S Fair Oaks Ave",
    "city": "Pasadena",
    "zip": "91105-2051",
    "phone": "626-577-0440",
    "products": "Annual, Daily, Secondary"
  },
  {
    "vendorname": "Isabel Clothing",
    "address": "3608 Arroyo Trail",
    "city": "Frazier Park",
    "zip": "93225",
    "phone": "661-301-8735",
    "products": "Daily"
  },
  {
    "vendorname": "Jensen's Market - Cedar Glen",
    "address": "211 N State Hwy 173",
    "city": "Cedar Glen",
    "zip": "92321",
    "phone": "909-337-3500",
    "products": "Annual, Daily, Secondary"
  },
  {
    "vendorname": "Jensen's Market - Running Springs",
    "address": "31987 Hilltop Blvd",
    "city": "Running Springs",
    "zip": "92382",
    "phone": "909-867-2228",
    "products": "Daily"
  },
  {
    "vendorname": "Jensen's Market - Wrightwood",
    "address": "1340 Hwy 2",
    "city": "Wrightwood",
    "zip": "92397",
    "phone": "760-249-3322",
    "products": "Annual, Daily, Secondary"
  },
  {
    "vendorname": "Johnny's Ski & Board House",
    "address": "39769 Big Bear Blvd",
    "city": "Big Bear Lake",
    "zip": "92315-3309",
    "phone": "909-866-5924",
    "products": "Annual, Daily"
  },
  {
    "vendorname": "Johnny's Sports Stop",
    "address": "1402 Lincoln Ave",
    "city": "Pasadena",
    "zip": "91103",
    "phone": "626-797-8839",
    "products": "Annual, Daily, Secondary"
  },
  {
    "vendorname": "Julian Chamber of Commerce",
    "address": "2129 Main Street",
    "city": "Julian",
    "zip": "92036",
    "phone": "760-765-1857",
    "products": "Annual, Daily, Secondary"
  },
  {
    "vendorname": "Klatch Coffee",
    "address": "3480 Sierra Ave",
    "city": "Fontana",
    "zip": "92336",
    "phone": "909-401-2771",
    "products": "Annual, Daily, Secondary"
  },
  {
    "vendorname": "L & M Mini Market & Gas",
    "address": "17100 Sierra Hwy",
    "city": "Canyon Country",
    "zip": "91351",
    "phone": "661-252-5066",
    "products": "Annual, Daily, Secondary"
  },
  {
    "vendorname": "La Bamba Mexican Grill Big Bear",
    "address": "587 Bonanza Trail #4",
    "city": "Big Bear Lake",
    "zip": "92315",
    "phone": "909-866-7696",
    "products": "Daily"
  },
  {
    "vendorname": "La CaadaShell",
    "address": "4530 Angeles Crest Hwy.",
    "city": "La Caada",
    "zip": "91011",
    "phone": "818-790-3836",
    "products": "Annual, Daily"
  },
  {
    "vendorname": "Laguna Mountain Volunteer Association",
    "address": "310 Trousdale Dr",
    "city": "Chula Vista",
    "zip": "91910-1016",
    "phone": "619-445-6235",
    "products": "Annual, Daily, Secondary"
  },
  {
    "vendorname": "Laguna Mt. Lodge",
    "address": "10678 Sunrise Hwy",
    "city": "Mt. Laguna",
    "zip": "91948",
    "phone": "619-473-8533",
    "products": "Annual, Daily"
  },
  {
    "vendorname": "Lake Arrowhead Chamber Of Commerce",
    "address": "28200 Hwy 189 Suite O1-270",
    "city": "Lake Arrowhead",
    "zip": "92352",
    "phone": "909-337-3715",
    "products": "Annual, Daily, Secondary"
  },
  {
    "vendorname": "Lake Drive Hardware",
    "address": "23895 Lake Drive",
    "city": "Crestline",
    "zip": "92325",
    "phone": "909-336-1547",
    "products": "Annual, Daily, Secondary"
  },
  {
    "vendorname": "Lake Hemet Market",
    "address": "56571 Hwy 74",
    "city": "Mountain Center",
    "zip": "92561",
    "phone": "951-760-0556",
    "products": "Annual, Daily, Secondary"
  },
  {
    "vendorname": "Lake Morena Country Market-2",
    "address": "29801 Oak Drive",
    "city": "Campo",
    "zip": "91906",
    "phone": "619-478-9067",
    "products": "Annual, Daily, Secondary"
  },
  {
    "vendorname": "Lakeview Market",
    "address": "40133 Big Bear Blvd",
    "city": "Big Bear Lake",
    "zip": "92315",
    "phone": "909-866-3912",
    "products": "Annual, Daily, Secondary"
  },
  {
    "vendorname": "Last Chance Bait And Tackle",
    "address": "3356 Wentworth Dr",
    "city": "Hemet",
    "zip": "92545",
    "phone": "951-658-7410",
    "products": "Annual, Daily, Secondary"
  },
  {
    "vendorname": "Leroys Shoes & Clothing",
    "address": "598 Paine Road",
    "city": "Big Bear Lake",
    "zip": "92315",
    "phone": "909-866-4887",
    "products": "Annual, Daily, Secondary"
  },
  {
    "vendorname": "Liquor King Inc.",
    "address": "5564 Fort Tejon Rd",
    "city": "Palmdale",
    "zip": "93552-5902",
    "phone": "661-533-1626",
    "products": "Annual, Daily, Secondary"
  },
  {
    "vendorname": "Liquor Land #7",
    "address": "944 N. Azusa Ave",
    "city": "Azusa",
    "zip": "91702",
    "phone": "626-334-3912",
    "products": "Annual, Daily, Secondary"
  },
  {
    "vendorname": "Littlerock Home N Ranch Center",
    "address": "8010 Pearblossom Hwy",
    "city": "Littlerock",
    "zip": "93543",
    "phone": "661-944-4101",
    "products": "Annual, Daily, Secondary"
  },
  {
    "vendorname": "Littlerock Liquor & Jr. Market",
    "address": "8062 Pearblossom Hwy",
    "city": "Littlerock",
    "zip": "93543",
    "phone": "661-944-4200",
    "products": "Annual, Daily, Secondary"
  },
  {
    "vendorname": "Lookout Roadhouse",
    "address": "32107 Ortega Hwy",
    "city": "Lake Elsinore",
    "zip": "92530",
    "phone": "951-678-9010",
    "products": "Annual, Daily, Secondary"
  },
  {
    "vendorname": "Los Angeles River Ranger District",
    "address": "12371 N. Little Tujunga Canyon Road",
    "city": "San Fernando",
    "zip": "91342",
    "phone": "818-899-1900",
    "products": "Annual, Daily, Secondary, Interagency Annual, Senior, Access"
  },
  {
    "vendorname": "Los Olivos Grocery",
    "address": "2621 W Highway 154",
    "city": "Santa Ynez",
    "zip": "93460-9137",
    "phone": "805-688-5115",
    "products": "Annual, Daily, Secondary"
  },
  {
    "vendorname": "Los Padres National Forest",
    "address": "6755 Hollister Ave",
    "city": "Goleta",
    "zip": "93117",
    "phone": "805-961-5745",
    "products": "Annual, Daily, Secondary, Interagency Annual, Senior, Access"
  },
  {
    "vendorname": "Lucerne Valley Market",
    "address": "32946 Hwy 18",
    "city": "Lucerne Valley",
    "zip": "92356",
    "phone": "760-248-7311",
    "products": "Annual, Daily"
  },
  {
    "vendorname": "Lytle Creek Ranger Station",
    "address": "1209 Lytle Creek Road",
    "city": "Lytle Creek",
    "zip": "92358",
    "phone": "909-382-2851",
    "products": "Annual, Daily, Secondary, Interagency Annual, Senior, Access"
  },
  {
    "vendorname": "Lytle Creek Watermelon Ranch",
    "address": "1401 Lytle Creek Rd",
    "city": "Lytle Creek",
    "zip": "92358",
    "phone": "909-346-2894",
    "products": "Annual, Daily, Secondary"
  },
  {
    "vendorname": "Melodies Place - Scotland Store",
    "address": "551 Lytle Creek Rd",
    "city": "Lytle Creek",
    "zip": "92358",
    "phone": "909-880-0606",
    "products": "Daily"
  },
  {
    "vendorname": "Mercado La Cachanilla#2",
    "address": "246 N Azusa Ave",
    "city": "Azusa",
    "zip": "91702",
    "phone": "626-804-3800",
    "products": "Daily"
  },
  {
    "vendorname": "Mercado La Cachanilla#3",
    "address": "345 N Azusa Ave",
    "city": "Azusa",
    "zip": "91702",
    "phone": "626-969-5800",
    "products": "Daily"
  },
  {
    "vendorname": "Midland Oil, Inc.",
    "address": "3892 Sierra Ave",
    "city": "Fontana",
    "zip": "92336",
    "phone": "909-429-7886",
    "products": "Daily"
  },
  {
    "vendorname": "Midway Market",
    "address": "600 East Border St",
    "city": "Frazier Park",
    "zip": "93225",
    "phone": "661-245-1790",
    "products": "Annual, Daily, Secondary"
  },
  {
    "vendorname": "Mill Creek Visitor Center",
    "address": "34701 Mill Creek Road",
    "city": "Mentone",
    "zip": "92359",
    "phone": "909-382-2882",
    "products": "Annual, Daily, Secondary, Interagency Annual, Senior, Access"
  },
  {
    "vendorname": "Mining Supplies & Rock Shop",
    "address": "9565 C Ave",
    "city": "Hesperia",
    "zip": "92345",
    "phone": "760-244-9642",
    "products": "Daily"
  },
  {
    "vendorname": "Miss Sunshine's General Store",
    "address": "54423 Village Center Dr",
    "city": "Idyllwild",
    "zip": "92549",
    "phone": "951-659-1212",
    "products": "Annual, Daily, Secondary"
  },
  {
    "vendorname": "Monterey Ranger District",
    "address": "406 S Mildred",
    "city": "King City",
    "zip": "93930",
    "phone": "831-385-5434",
    "products": "Annual, Daily, Secondary, Interagency Annual, Senior, Access"
  },
  {
    "vendorname": "Motoworld of El Cajon",
    "address": "315 N Magnolia Ave",
    "city": "El Cajon",
    "zip": "92020",
    "phone": "619-442-0941",
    "products": "Annual, Daily, Secondary"
  },
  {
    "vendorname": "Mount Baldy Lodge",
    "address": "6777 Mt Baldy Rd",
    "city": "Mt Baldy",
    "zip": "91759-9000",
    "phone": "909-982-1115",
    "products": "Annual, Daily"
  },
  {
    "vendorname": "Mount Baldy Visitor Center",
    "address": "6778 Mt Baldy Road",
    "city": "Mt Baldy",
    "zip": "91759",
    "phone": "909-982-2829",
    "products": "Annual, Daily, Secondary, Interagency Annual, Senior, Access"
  },
  {
    "vendorname": "Mountain Center Caf",
    "address": "29470 Hwy 243",
    "city": "Mountain Center",
    "zip": "92549",
    "phone": "951-206-9671",
    "products": "Annual, Daily, Secondary"
  },
  {
    "vendorname": "Mountain Center Market & Gas",
    "address": "53660 Hwy 74",
    "city": "Mountain Center",
    "zip": "92561",
    "phone": "951-659-1100",
    "products": "Annual, Daily, Secondary"
  },
  {
    "vendorname": "Mountain Hardware",
    "address": "1390 Hwy 2",
    "city": "Wrightwood",
    "zip": "92397",
    "phone": "760-249-3653",
    "products": "Annual, Daily"
  },
  {
    "vendorname": "Mountain Lakes",
    "address": "277 Lytle Creek Rd.",
    "city": "Lytle Creek",
    "zip": "92358",
    "phone": "909-887-7070",
    "products": "Daily"
  },
  {
    "vendorname": "Mountain Market",
    "address": "28914 Old Hwy 80",
    "city": "Pine Valley",
    "zip": "91962",
    "phone": "619-473-0038",
    "products": "Annual, Daily, Secondary"
  },
  {
    "vendorname": "Mt Pinos Ranger District",
    "address": "34580 Lockwood Valley Rd",
    "city": "Frazier Park",
    "zip": "93225",
    "phone": "661-245-3731",
    "products": "Annual, Daily, Secondary, Interagency Annual, Senior, Access"
  },
  {
    "vendorname": "Mt View Market & Deli",
    "address": "6929 Lockwood Valley Rd",
    "city": "Frazier Park",
    "zip": "93225",
    "phone": "661-245-1653",
    "products": "Annual, Daily, Secondary"
  },
  {
    "vendorname": "Mt. Baldy Trout Pools",
    "address": "801 San Antonio Creek Rd",
    "city": "Mt Baldy",
    "zip": "91759",
    "phone": "909-982-4246",
    "products": "Annual, Daily, Secondary"
  },
  {
    "vendorname": "Myscenicdrives.Com - On-Line Vendor",
    "address": "4574 36th Ave West",
    "city": "Seattle",
    "zip": "98199",
    "phone": "855-249-0848",
    "products": "Annual, Daily, Secondary, Interagency Annual"
  },
  {
    "vendorname": "Nomad Ventures",
    "address": "54415 N Circle Dr",
    "city": "Idyllwild",
    "zip": "92549",
    "phone": "951-659-4853",
    "products": "Annual, Daily"
  },
  {
    "vendorname": "Nomad Ventures- Temecula",
    "address": "28780 Old Town Front St",
    "city": "Temecula",
    "zip": "92590",
    "phone": "951-659-4853",
    "products": "Annual, Daily"
  },
  {
    "vendorname": "North Shore Trading Company",
    "address": "39128 N Shore Dr",
    "city": "Fawnskin",
    "zip": "92333",
    "phone": "909-866-3414",
    "products": "Annual, Daily, Secondary"
  },
  {
    "vendorname": "Oak View Shell",
    "address": "905 N Ventura Ave",
    "city": "Oak View",
    "zip": "93022",
    "phone": "805-649-2268",
    "products": "Annual, Daily, Secondary"
  },
  {
    "vendorname": "Ojai Chapter, LPFA",
    "address": "17017 Maricopa Hwy",
    "city": "Ojai",
    "zip": "93023",
    "phone": "805-640-9060",
    "products": "Annual, Daily, Secondary"
  },
  {
    "vendorname": "Ojai Ranger District",
    "address": "1190 E Ojai Ave",
    "city": "Ojai",
    "zip": "93023",
    "phone": "805-646-4348",
    "products": "Annual, Daily, Secondary, Interagency Annual, Senior, Access"
  },
  {
    "vendorname": "Old Julian Drug Store",
    "address": "2134 Main St",
    "city": "Julian",
    "zip": "92036",
    "phone": "760-765-0298",
    "products": "Annual, Daily, Secondary"
  },
  {
    "vendorname": "Ortega Oaks Candy Store & Goods",
    "address": "34950 Ortega Hwy",
    "city": "Lake Elsinore",
    "zip": "92530",
    "phone": "909-749-8611",
    "products": "Annual, Daily, Secondary"
  },
  {
    "vendorname": "Our Town Liquor",
    "address": "40568 Village Drive, #A",
    "city": "Big Bear Lake",
    "zip": "92315",
    "phone": "909-866-2330",
    "products": "Annual, Daily, Secondary"
  },
  {
    "vendorname": "Papa's Country Store",
    "address": "17518 Elizabeth Lake Road",
    "city": "Lake Hughes",
    "zip": "93532",
    "phone": "661-724-1634",
    "products": "Annual, Daily, Secondary"
  },
  {
    "vendorname": "Pasadena Cyclery",
    "address": "1670 E Walnut St",
    "city": "Pasadena",
    "zip": "91106",
    "phone": "626-584-6391",
    "products": "Annual, Daily, Secondary"
  },
  {
    "vendorname": "Perkins Store",
    "address": "24680 Viejas Grade",
    "city": "Descanso",
    "zip": "91916",
    "phone": "619-445-2578",
    "products": "Annual, Daily"
  },
  {
    "vendorname": "Petrolink, Inc.",
    "address": "8324 Hwy 138",
    "city": "Phelan",
    "zip": "92371",
    "phone": "760-249-6105",
    "products": "Daily"
  },
  {
    "vendorname": "Phelan Gun Range",
    "address": "9539 Johnson Rd",
    "city": "Phelan",
    "zip": "92371",
    "phone": "760-868-3167",
    "products": "Annual, Daily, Secondary"
  },
  {
    "vendorname": "Phillips 66 # 6503 - Longmont",
    "address": "1801 Hover Road",
    "city": "Longmont",
    "zip": "80501",
    "phone": "303-651-0868",
    "products": "Interagency Annual"
  },
  {
    "vendorname": "Phillips 66 # 6505 - Boulder",
    "address": "3375 28th St",
    "city": "Boulder",
    "zip": "80301",
    "phone": "303-443-0970",
    "products": "Interagency Annual"
  },
  {
    "vendorname": "Phillips 66 # 6507 - Monument",
    "address": "534 State Hwy 105",
    "city": "Monument",
    "zip": "80132",
    "phone": "719-488-2700",
    "products": "Interagency Annual"
  },
  {
    "vendorname": "Phillips 66 # 6510 - Boulder",
    "address": "3000 28th Street",
    "city": "Boulder",
    "zip": "80301",
    "phone": "303-442-8545",
    "products": "Interagency Annual"
  },
  {
    "vendorname": "Phillips 66 # 6513 - Colorado Springs",
    "address": "507 Garden Of The Gods Rd",
    "city": "Colorado Springs",
    "zip": "80907",
    "phone": "719-265-6836",
    "products": "Interagency Annual"
  },
  {
    "vendorname": "Phillips 66 # 6548 - Morrison",
    "address": "16283 Morrison Road",
    "city": "Morrison",
    "zip": "80465",
    "phone": "303-697-3998",
    "products": "Interagency Annual"
  },
  {
    "vendorname": "Pine Cove Market",
    "address": "23235 Hwy 243",
    "city": "Idyllwild",
    "zip": "92549",
    "phone": "951-468-4162",
    "products": "Annual, Daily, Secondary"
  },
  {
    "vendorname": "Pine Valley Store",
    "address": "28820 Old Hwy 80",
    "city": "Pine Valley",
    "zip": "91962",
    "phone": "619-473-8723",
    "products": "Annual, Daily, Secondary"
  },
  {
    "vendorname": "R Country Market-Los Olivos",
    "address": "2948 Grand Ave",
    "city": "Los Olivos",
    "zip": "93441",
    "phone": "805-688-6750",
    "products": "Annual, Daily"
  },
  {
    "vendorname": "Ramco Petroleum, Lap",
    "address": "741 Hwy 78 ",
    "city": "Ramona",
    "zip": "92065",
    "phone": "760-788-9885",
    "products": "Annual, Daily, Secondary"
  },
  {
    "vendorname": "Ramona Chevron",
    "address": "802 Main St",
    "city": "Ramona",
    "zip": "92065",
    "phone": "760-789-6583",
    "products": "Annual, Daily, Secondary"
  },
  {
    "vendorname": "Ranchers Market",
    "address": "9001 Elizabeth Lake Rd",
    "city": "Leona Valley",
    "zip": "93551",
    "phone": "661-270-0615",
    "products": "Annual, Daily, Secondary"
  },
  {
    "vendorname": "REI - GOODYEAR DISTRIBUTION CENTER",
    "address": "4877 N Cotton Ave",
    "city": "Goodyear",
    "zip": "85395-9216",
    "phone": "800-426-4840",
    "products": "Annual, Daily, Secondary"
  },
  {
    "vendorname": "REI #107 Santa Monica",
    "address": "402 Santa Monica Blvd",
    "city": "Santa Monica",
    "zip": "90401",
    "phone": "310-458-4370",
    "products": "Annual, Daily"
  },
  {
    "vendorname": "REI #132 Oxnard",
    "address": "2700 Seaglass Way",
    "city": "Oxnard",
    "zip": "93036",
    "phone": "805-981-1938",
    "products": "Annual, Daily, Secondary"
  },
  {
    "vendorname": "REI #134 Santa Barbara",
    "address": "321 Anacapa St",
    "city": "Santa Barbara",
    "zip": "93101-2338",
    "phone": "805-560-1938",
    "products": "Annual, Daily, Secondary"
  },
  {
    "vendorname": "REI #14 Manhattan Beach",
    "address": "1800 Rosecrans Ave",
    "city": "Manhattan Beach",
    "zip": "90266",
    "phone": "310-727-0728",
    "products": "Annual, Daily"
  },
  {
    "vendorname": "REI #148 Woodland Hills",
    "address": "6220 Topanga Canyon Blvd",
    "city": "Woodland Hills",
    "zip": "91367",
    "phone": "818-703-5300",
    "products": "Annual, Daily, Secondary"
  },
  {
    "vendorname": "REI #17 Tustin",
    "address": "2962 El Camino Real",
    "city": "Tustin",
    "zip": "92782",
    "phone": "714-505-0205",
    "products": "Annual, Daily, Secondary"
  },
  {
    "vendorname": "REI #183 Burbank",
    "address": "1900 W Empire Ave Ste R12",
    "city": "Burbank",
    "zip": "91504",
    "phone": "818-847-9509",
    "products": "Annual, Daily, Secondary"
  },
  {
    "vendorname": "REI #29 San Diego",
    "address": "5556 Copley Drive",
    "city": "San Diego",
    "zip": "92111",
    "phone": "858-279-4400",
    "products": "Annual, Daily, Secondary"
  },
  {
    "vendorname": "REI #39 Northridge",
    "address": "18605 Devonshire St",
    "city": "Northridge",
    "zip": "91324",
    "phone": "818-831-5558",
    "products": "Annual, Daily"
  },
  {
    "vendorname": "REI #63 Arcadia",
    "address": "214 N Santa Anita Ave",
    "city": "Arcadia",
    "zip": "91006",
    "phone": "626-447-1062",
    "products": "Annual, Daily, Secondary"
  },
  {
    "vendorname": "REI #88 Huntington Beach",
    "address": "7777 Edinger Ave, Ste 138",
    "city": "Huntington Beach",
    "zip": "92647",
    "phone": "714-379-1938",
    "products": "Annual, Daily, Secondary"
  },
  {
    "vendorname": "REI #90 Encinitas",
    "address": "1590 Leucadia Blvd.",
    "city": "Encinitas",
    "zip": "92024",
    "phone": "760-944-9020",
    "products": "Annual, Daily, Secondary"
  },
  {
    "vendorname": "REI #93 Rancho Cucamonga",
    "address": "12218 Foothill Blvd",
    "city": "Rancho Cucamonga",
    "zip": "91739",
    "phone": "909-646-8360",
    "products": "Annual, Daily, Secondary"
  },
  {
    "vendorname": "Rim Of The World Interpretive Assoc.",
    "address": "1958 Lake Arrowhead",
    "city": "Lake Arrowhead",
    "zip": "92352",
    "phone": "909-338-4163",
    "products": "Annual, Daily, Secondary"
  },
  {
    "vendorname": "Rio Cafe & Groceries",
    "address": "9411 Soledad Canyon Rd",
    "city": "Agua Dulce",
    "zip": "91310",
    "phone": "661-268-0643",
    "products": "Annual, Daily"
  },
  {
    "vendorname": "Rough Riders Sporting Goods",
    "address": "54245 North Circle Dr",
    "city": "Idyllwild",
    "zip": "92549",
    "phone": "951-659-4043",
    "products": "Annual, Daily, Secondary"
  },
  {
    "vendorname": "Saddleback Ace Hardware",
    "address": "16921 E Ave O",
    "city": "Palmdale",
    "zip": "93591",
    "phone": "661-264-1178",
    "products": "Annual, Daily, Secondary"
  },
  {
    "vendorname": "Sams Liquor& Junior Market",
    "address": "239 Frazier Mt Rd",
    "city": "Lebec",
    "zip": "93243",
    "phone": "661-248-5277",
    "products": "Annual, Daily, Secondary"
  },
  {
    "vendorname": "San Bernardino National Forest",
    "address": "602 S Tippecanoe Ave",
    "city": "San Bernardino",
    "zip": "92408",
    "phone": "909-382-2600",
    "products": "Annual, Daily, Secondary, Interagency Annual, Senior, Access"
  },
  {
    "vendorname": "San Gabriel Canyon Gateway Center",
    "address": "1960 N. San Gabriel Canyon Road",
    "city": "Azusa",
    "zip": "91702",
    "phone": "626-969-1012",
    "products": "Annual, Daily, Secondary, Interagency Annual, Senior, Access"
  },
  {
    "vendorname": "San Gabriel Mountains National Monument",
    "address": "110 N. Wabash Ave",
    "city": "Glendora",
    "zip": "91741",
    "phone": "626-335-1251",
    "products": "Annual, Daily, Secondary, Interagency Annual, Senior, Access"
  },
  {
    "vendorname": "San Gabriel Mtn Heritage Association",
    "address": "USFS Mt Baldy Visitor Center",
    "city": "Mt Baldy",
    "zip": "91759",
    "phone": "909-982-2879",
    "products": "Annual, Daily, Secondary, Interagency Annual"
  },
  {
    "vendorname": "San Gorgonio Wilderness Association",
    "address": "34701 Mill Creek Road",
    "city": "Mentone",
    "zip": "92359",
    "phone": "909-794-4861",
    "products": "Annual, Daily, Secondary"
  },
  {
    "vendorname": "San Jacinto Ranger Station",
    "address": "54270 Pine Crest",
    "city": "Idyllwild",
    "zip": "92549",
    "phone": "909-382-2921",
    "products": "Annual, Daily, Secondary, Interagency Annual, Senior, Access"
  },
  {
    "vendorname": "Sand Canyon Mobile",
    "address": "16411 Delone Street",
    "city": "Santa Clarita",
    "zip": "91387",
    "phone": "661-251-1162",
    "products": "Annual, Daily, Secondary"
  },
  {
    "vendorname": "Sand to Snow National Monument",
    "address": "",
    "city": "San Bernardino County",
    "zip": "92408",
    "phone": "909-382-2600",
    "products": "Annual, Daily, Secondary, Interagency Annual, Senior, Access",
    "uncertainAddress": "true"
  },
  {
    "vendorname": "Santa Anita Wine And Spirits, Inc.",
    "address": "1002 N Santa Anita Ave",
    "city": "Arcadia",
    "zip": "91006",
    "phone": "626-623-6035",
    "products": "Annual, Daily, Secondary"
  },
  {
    "vendorname": "Santa Barbara Pistachio Co.",
    "address": "3380 Highway 33",
    "city": "Maricopa",
    "zip": "93252",
    "phone": "661-766-2177",
    "products": "Annual, Daily, Secondary"
  },
  {
    "vendorname": "Santa Barbara Ranger District",
    "address": "3505 Paradise Rd",
    "city": "Santa Barbara",
    "zip": "93105",
    "phone": "805-967-3481",
    "products": "Annual, Daily, Secondary, Interagency Annual, Senior, Access"
  },
  {
    "vendorname": "Santa Clara-Mojave Rivers Ranger District",
    "address": "33708 Crown Valley Road",
    "city": "Acton",
    "zip": "93510",
    "phone": "661-269-2825",
    "products": "Annual, Daily, Secondary, Interagency Annual, Senior, Access"
  },
  {
    "vendorname": "Santa Lucia Ranger District",
    "address": "1616 N Carlotti Dr",
    "city": "Santa Maria",
    "zip": "93454",
    "phone": "805-925-9538",
    "products": "Annual, Daily, Secondary, Interagency Annual, Senior, Access"
  },
  {
    "vendorname": "Santa Rosa & San Jacinto Mountains National Monument Visitor Center",
    "address": "51500 Highway 74",
    "city": "Palm Desert",
    "zip": "92260",
    "phone": "760-862-9984",
    "products": "Interagency Annual, Senior, Access"
  },
  {
    "vendorname": "Sheldon Entertainment Company",
    "address": "6069 Park Dr",
    "city": "Wrightwood",
    "zip": "92397",
    "phone": "760-249-4400",
    "products": "Annual, Daily, Secondary"
  },
  {
    "vendorname": "Shell # 208 - Lakewood",
    "address": "6819 E Carson St",
    "city": "Lakewood",
    "zip": "90713",
    "phone": "562-541-8352",
    "products": "Annual, Daily, Secondary, Interagency Annual"
  },
  {
    "vendorname": "Shell # 251 - Madera",
    "address": "18463 Road 23",
    "city": "Madera",
    "zip": "93637",
    "phone": "559-664-8831",
    "products": "Interagency Annual"
  },
  {
    "vendorname": "Shell # 53 - Torrance",
    "address": "3101 Artesia Blvd",
    "city": "Torrance",
    "zip": "90504",
    "phone": "310-436-3900",
    "products": "Annual, Daily, Secondary, Interagency Annual"
  },
  {
    "vendorname": "Shell Tavern Road ",
    "address": "1140 Tavern Road",
    "city": "Alpine",
    "zip": "91901",
    "phone": "619-445-0200",
    "products": "Annual, Daily, Secondary"
  },
  {
    "vendorname": "Shop & Go Mini Mart",
    "address": "166 W Sierra Madre Ave",
    "city": "Azusa",
    "zip": "91702",
    "phone": "626-334-3489",
    "products": "Annual, Daily, Secondary"
  },
  {
    "vendorname": "Short Stop Mini Market",
    "address": "1001 E Donovan Rd",
    "city": "Santa Maria",
    "zip": "93454",
    "phone": "805-925-5661",
    "products": "Annual, Daily, Secondary"
  },
  {
    "vendorname": "Sierra Liquor",
    "address": "17800 Sierra Hwy",
    "city": "Canyon Country",
    "zip": "91351",
    "phone": "661-298-0860",
    "products": "Annual, Daily, Secondary"
  },
  {
    "vendorname": "Silverado Canyon Market",
    "address": "28192 Silverado Canyon Rd",
    "city": "Silverado",
    "zip": "92676",
    "phone": "714-649-9056",
    "products": "Annual, Daily, Secondary"
  },
  {
    "vendorname": "Silverwood Gas Mart",
    "address": "12077 Hwy 138",
    "city": "Summit Valley",
    "zip": "92345",
    "phone": "760-389-2423",
    "products": "Annual, Daily, Secondary"
  },
  {
    "vendorname": "Snow Valley Ski Resort",
    "address": "35100 Hwy 18",
    "city": "Running Springs",
    "zip": "92382",
    "phone": "909-867-2751",
    "products": "Annual, Daily, Secondary"
  },
  {
    "vendorname": "Snowcrest Lodge",
    "address": "7930 Mt Baldy Rd",
    "city": "Mt Baldy",
    "zip": "91759",
    "phone": "909-350-0185",
    "products": "Daily"
  },
  {
    "vendorname": "Southern CA Nordic Ski Patrol",
    "address": "",
    "city": "Frazier Park",
    "zip": "93225",
    "phone": "661-245-3731",
    "products": "Daily",
    "uncertainAddress": "true"
  },
  {
    "vendorname": "Southern California Mountains Foundation",
    "address": "40971 Highway 38/North Shore Drive",
    "city": "Fawnskin",
    "zip": "92333",
    "phone": "909-382-2790",
    "products": "Annual, Daily, Secondary"
  },
  {
    "vendorname": "Speedway Shell",
    "address": "3864 Sierra Ave",
    "city": "Fontana",
    "zip": "92336",
    "phone": "909-356-8762",
    "products": "Annual, Daily, Secondary"
  },
  {
    "vendorname": "Star Cycle USA",
    "address": "355 Frazier Mtn Park Rd",
    "city": "Lebec",
    "zip": "93243",
    "phone": "661-248-1400",
    "products": "Daily"
  },
  {
    "vendorname": "Sunshine Liquor",
    "address": "34253 Yucaipa Blvd",
    "city": "Yucaipa",
    "zip": "92399",
    "phone": "909-797-1668",
    "products": "Annual, Daily, Secondary"
  },
  {
    "vendorname": "The Chrome Stop",
    "address": "40277 Big Bear Blvd",
    "city": "Big Bear Lake",
    "zip": "92315",
    "phone": "909-878-4900",
    "products": "Daily"
  },
  {
    "vendorname": "The Cosmic Cafe-Mt Wilson Observatory",
    "address": "307 Observatory Dr",
    "city": "Mt Wilson",
    "zip": "91023",
    "phone": "626-440-9018",
    "products": "Daily"
  },
  {
    "vendorname": "The Country Store",
    "address": "37686 State Highway 38",
    "city": "Angelus Oaks",
    "zip": "92305",
    "phone": "909-728-0379",
    "products": "Annual, Daily, Secondary"
  },
  {
    "vendorname": "The San Gabriel Mountains Trail Builders",
    "address": "Gateway Entrance ",
    "city": "Azusa",
    "zip": "91702",
    "phone": "626-303-1078",
    "products": "Annual, Daily, Secondary"
  },
  {
    "vendorname": "Top Market",
    "address": "503 N Azusa Ave",
    "city": "Azusa",
    "zip": "91702",
    "phone": "626-202-3782",
    "products": "Annual, Daily, Secondary"
  },
  {
    "vendorname": "Topanga Creek Outpost",
    "address": "1273 N Topanga Canyon Blvd",
    "city": "Topanga",
    "zip": "90290-4270",
    "phone": "310-455-2111",
    "products": "Annual, Daily, Secondary"
  },
  {
    "vendorname": "Town & Country Market",
    "address": "13012 Pearblossom Hwy",
    "city": "Pearblossom",
    "zip": "93553-3002",
    "phone": "661-944-4136",
    "products": "Annual, Daily, Secondary"
  },
  {
    "vendorname": "Trabuco General Store",
    "address": "31021 Trabuco Canyon",
    "city": "Trabuco Canyon",
    "zip": "92678",
    "phone": "949-709-5960",
    "products": "Annual, Daily, Secondary"
  },
  {
    "vendorname": "Trabuco Ranger Station",
    "address": "1147 E 6th St",
    "city": "Corona",
    "zip": "92879",
    "phone": "951-736-1811",
    "products": "Annual, Daily, Secondary, Interagency Annual, Senior, Access"
  },
  {
    "vendorname": "Turner's Outdoorsman # ?",
    "address": "14311 Bear Valley Rd #102",
    "city": "Victorville",
    "zip": "92392",
    "phone": "760-244-1999",
    "products": "Annual, Daily, Secondary"
  },
  {
    "vendorname": "Turner's Outdoorsman #1",
    "address": "2201 E. Willow St., Suite M",
    "city": "Signal Hill",
    "zip": "90755",
    "phone": "562-492-6694",
    "products": "Annual, Daily, Secondary"
  },
  {
    "vendorname": "Turner's Outdoorsman #10",
    "address": "835 S. Arroyo Parkway",
    "city": "Pasadena",
    "zip": "91105",
    "phone": "626-578-0843",
    "products": "Annual, Daily, Secondary"
  },
  {
    "vendorname": "Turner's Outdoorsman #11",
    "address": "18305 Hawthorne Blvd",
    "city": "Torrance",
    "zip": "90504-4510",
    "phone": "310-214-8724",
    "products": "Annual, Daily, Secondary"
  },
  {
    "vendorname": "Turner's Outdoorsman #12",
    "address": "491 Orange Show Rd.",
    "city": "San Bernardino",
    "zip": "92408",
    "phone": "909-388-1090",
    "products": "Annual, Daily, Secondary"
  },
  {
    "vendorname": "Turner's Outdoorsman #13",
    "address": "8199 Claremont Mesa Blvd, Ste E",
    "city": "Kearny Mesa",
    "zip": "92111",
    "phone": "858-278-8005",
    "products": "Annual, Daily, Secondary"
  },
  {
    "vendorname": "Turner's Outdoorsman #16",
    "address": "2085 Montiel St., Ste #104",
    "city": "San Marcos",
    "zip": "92069",
    "phone": "760-741-1570",
    "products": "Annual, Daily, Secondary"
  },
  {
    "vendorname": "Turner's Outdoorsman #18 ",
    "address": "4200 Chino Hills Parkway, Suite 600",
    "city": "Chino Hills",
    "zip": "91709",
    "phone": "909-606-1831",
    "products": "Annual, Daily, Secondary"
  },
  {
    "vendorname": "Turner's Outdoorsman #19- Corp. Office",
    "address": "11738 San Marino St. Suite A",
    "city": "Rancho Cucamonga",
    "zip": "91730",
    "phone": "909-923-4466",
    "products": "Annual, Daily, Secondary"
  },
  {
    "vendorname": "Turner's Outdoorsman #2",
    "address": "19329 Vanowen St.",
    "city": "Reseda",
    "zip": "91335",
    "phone": "818-996-1864",
    "products": "Annual, Daily, Secondary"
  },
  {
    "vendorname": "Turner's Outdoorsman #3",
    "address": "1932 N. Tustin Ave.",
    "city": "Orange",
    "zip": "92685",
    "phone": "714-974-0600",
    "products": "Annual, Daily, Secondary"
  },
  {
    "vendorname": "Turner's Outdoorsman #4",
    "address": "357 N. Azusa Ave",
    "city": "West Covina",
    "zip": "91791",
    "phone": "626-858-8948",
    "products": "Annual, Daily, Secondary"
  },
  {
    "vendorname": "Turner's Outdoorsman #7",
    "address": "2246 Griffin Way",
    "city": "Corona",
    "zip": "92879",
    "phone": "951-736-8007",
    "products": "Annual, Daily, Secondary"
  },
  {
    "vendorname": "Turner's Outdoorsman #8",
    "address": "11336 Firestone Blvd.",
    "city": "Norwalk",
    "zip": "90650",
    "phone": "562-864-0774",
    "products": "Annual, Daily, Secondary"
  },
  {
    "vendorname": "Turner's Outdoorsman #9 ",
    "address": "18808 Brookhurst St.",
    "city": "Fountain Valley",
    "zip": "92708",
    "phone": "714-963-3299",
    "products": "Annual, Daily, Secondary"
  },
  {
    "vendorname": "United Oil # 179 - Carson",
    "address": "22235 Figueroa St",
    "city": "Carson",
    "zip": "90745",
    "phone": "310-782-8128",
    "products": "Annual, Daily, Secondary, Interagency Annual"
  },
  {
    "vendorname": "United Oil # 204 - Vista",
    "address": "1740 E Vista Way",
    "city": "Vista",
    "zip": "92084",
    "phone": "760-410-6109",
    "products": "Annual, Daily, Secondary"
  },
  {
    "vendorname": "United Oil # 5313 - Escondido",
    "address": "1061 W El Norte Pkwy",
    "city": "Escondido",
    "zip": "92026",
    "phone": "760-480-1342",
    "products": "Annual, Daily, Secondary"
  },
  {
    "vendorname": "United Pacific",
    "address": "4130 Cover St",
    "city": "Long Beach",
    "zip": "90808",
    "phone": "310-323-3992",
    "products": "Annual, Daily, Secondary"
  },
  {
    "vendorname": "Upland Fuel",
    "address": "2401 N Euclid Ave",
    "city": "Upland",
    "zip": "91784",
    "phone": "909-946-6158",
    "products": "Annual, Daily"
  },
  {
    "vendorname": "US Hendy Oil, Inc",
    "address": "100 N Azusa Ave",
    "city": "Azusa",
    "zip": "91702",
    "phone": "626-334-2103",
    "products": "Annual, Daily, Secondary"
  },
  {
    "vendorname": "US Petro Inc",
    "address": "3870 Sierra Ave",
    "city": "Fontana",
    "zip": "92336",
    "phone": "909-429-0464",
    "products": "Daily"
  },
  {
    "vendorname": "Valero Depot #1 - Running Springs",
    "address": "32755 Highway 18",
    "city": "Running Springs",
    "zip": "92382",
    "phone": "909-867-2221",
    "products": "Annual, Daily, Secondary"
  },
  {
    "vendorname": "Valero Depot #3 - Rimforest",
    "address": "26599 Pine Ave",
    "city": "Rimforest",
    "zip": "92378",
    "phone": "909-336-0084",
    "products": "Annual, Daily, Secondary"
  },
  {
    "vendorname": "Valero-Fontana ",
    "address": "3740 Sierra Ave",
    "city": "Fontana",
    "zip": "92336",
    "phone": "909-428-0222",
    "products": "Annual, Daily, Secondary"
  },
  {
    "vendorname": "Valle Vista Mobil",
    "address": "44462 Hwy 74",
    "city": "Hemet",
    "zip": "92544",
    "phone": "951-927-1048",
    "products": "Annual, Daily, Secondary"
  },
  {
    "vendorname": "Volunteers Of The Angeles National Forest",
    "address": "Grassy Hollow Visitor Center",
    "city": "Wrightwood",
    "zip": "92397",
    "phone": "626-821-6737",
    "products": "Annual, Daily, Secondary"
  },
  {
    "vendorname": "Wake And Wheel",
    "address": "27278-A Hwy 189",
    "city": "Blue Jay",
    "zip": "92317",
    "phone": "909-337-7433",
    "products": "Annual, Daily, Secondary"
  },
  {
    "vendorname": "Wal-Mart #2099",
    "address": "180 Niblick Rd",
    "city": "Paso Robles",
    "zip": "93446",
    "phone": "805-238-1212",
    "products": "Annual, Daily, Secondary"
  },
  {
    "vendorname": "Wal-Mart #2950",
    "address": "37140 47th St East",
    "city": "Palmdale",
    "zip": "93552",
    "phone": "661-533-0248",
    "products": "Annual, Daily, Secondary"
  },
  {
    "vendorname": "Wal-Mart #2951",
    "address": "1731 East Avenue J",
    "city": "Lancaster",
    "zip": "93535",
    "phone": "661-945-7848",
    "products": "Annual, Daily, Secondary"
  },
  {
    "vendorname": "Western Auto/Firearms",
    "address": "6621 S Atlantic Ave",
    "city": "Bell",
    "zip": "90201",
    "phone": "323-560-0560",
    "products": "Annual, Daily"
  },
  {
    "vendorname": "Wrightwood Auto Service",
    "address": "1415 State Hwy. 2",
    "city": "Wrightwood",
    "zip": "92397",
    "phone": "760-249-5335",
    "products": "Daily"
  },
  {
    "vendorname": "Wrightwood Market",
    "address": "1315 Hwy 2",
    "city": "Wrightwood",
    "zip": "92397",
    "phone": "760-249-6115",
    "products": "Annual, Daily, Secondary"
  }
]
